id;code;name;address;postal_code;city;email;phone
1;2;ZIEHL-ABEGG;719 Rue de la Gare;1800;Villieu;societe@ziehl-abegg.fr;
2;3;WALTER PRAZISION;Westfalen strasse 2;;Haan Allemagne;;
3;5;UNIS Groupe;13 Rue Berthlot;59000;Lille;vente@unisgroup.com;
4;6;SODIMA;4 Allee Dache Dise;40180;Hinx;sodima.hinx@wanadoo.fr;
5;7;SIGNODE;4 Allee des Erables;94000;Creteil;;
6;8;SIEI;8 Avenue de la Malle;51370;Saint Brice Courcelles;;
7;9;ADDITIF;4 rue Monnieres;39100;FOUCHERANS;;
8;10;SERCOM;19 Rue Clairefontaine;78120;Rambouillet;a2v@a2v.fr;
9;11;SAVOIE Transmission;25 Rue Vega Parc Altais;74650;Chavanod;;
10;12;SAMIFI;ZA de Beaumont;61230;Croisilles;contact@samifi.com;
11;13;AIR LIQUIDE;IMPASSE DENIS PAPIN ZI SUD;67400;ILLKIRCH;;
12;14;AIR PRODUCTS STAND.;;;;;
13;15;S.C.A.M;ZA de Kerbusson;22600;Saint Barnabe;;
14;16;ROSIER;13 Rue Sigmund Freud;69120;Vaulx en Velin;contact@rosier.fr;
15;17;MDP;;;;;
16;18;LVF;Rue des Epinettes;77200;Torcy;;
17;19;ALIMAT TREMBLAY;11 rue Henri Farman;93297;TREMBLAY EN FRA;;
18;20;ALMET;3 rue Ettore Bugatti BP34;67038;STRASBOURG CEDE;;
19;21;LABO MD;2 Rue des Charpentiers;57076;Metz;contact@labo-md.com;
20;22;GARDNER DENVER;4 Rue Montmurier;38070;Saint Quentin Fallavier;contact.lyon@gardnerdenver.com;
21;23;ALSACE ELECTRO DIESE;20 rue du Fort;67118;GEISPOLSHEIM GA;;
22;24;AUDIT MAINTENANCE IN;1 rue de l Espagne;67230;BENFELD;;
23;25;ALSACE PESAGE;Z.A.-B.P. 13;67720;Weyersheim;;
24;26;ALSIA;19 , ROUTE DE BISCHWILLER BP34;67301;SCHILTIGHEIM CX;;
25;27;ANDRES Bernard;298A rue du moulin;67210;MEISTRATZEIM;;
26;28;FIDEST;2 Rue Fort;67118;Geispolsheim;;
27;29;APAVE;2,RUE THIERS- BP 1347;68056;MULHOUSE CEDEX;;
28;30;API;2 Place de Lattre de Tassigny;67300;Schiltigheim;;
29;31;APLIFIL;ZI de l Arquerie;27270;BROGLIE;;
30;32;EUROPUMPS;Lieu Dit Pic;24400;Les Leches;;
31;33;ESM DISTRIBUTION;39 Route de Colmar;68150;Ostheim;;
32;34;DAMS électronique;34 Rue Oberlin;67000;Strasbourg;;
33;35;ELECTIS;3 Rue Schertz;67100;Strasbourg;;
34;36;CTB CHOFFEL;29 Rang de Veseaux;88200;Remiremont;;
35;37;DISTRILAB HATRY;Zi La croisette;8000;Charleville Mezieres;;
36;38;ABB MOTORS;Rue Norman King;60031;Beauvais;;
37;39;AIRINDEX;11 Rue Edouard Branly;37174;Chambray les Tours;contact@airindex.fr;
38;40;SCHMERSAL France;8 rue Raoul Follereau;38180;SEYSSINS;;
39;41;BIA diffusion;Rue du Parc;68700;Cernay;;
40;42;BONNET Alsace;8 Rue Frederic Chopin;67118;Geispolsheim;;
41;44;B.D.L. Tambour Moteu;ZI de KERANNOU  BP34;29250;ST POL DE LEON;;
42;45;BAERMANN;Port du Rhin;67100;STRASBOURG;;
43;46;C3A;36 Rue de la Carrière;54000;Nancy;contact@c3a-france.eu;
44;47;BALZINGER;18, Rte DU Gl DE GUAULLE;67300;SCHILTIGHEIM;;
45;49;CONRAD;4 Rue Colbert;59800;Lille;;
46;50;BAUMULLER FRANCE SAR;39 av de l'Europe;77184;EMERAINVILLE;;
47;54;BENSOUSSAN;13 ru du château d'angleterre;67300;schiltigheim;;
48;55;BERTHOLD MAX & CIE S;23 rue Saglio;67100;STRASBOURG MEIN;;
49;56;BILD SCHEER;10 Rue du Chêne  ZI;67800;HOENHEIM;;
50;57;Binder & Jenny;14 Rue du Marechal Lefebvre BP;67022;Strasbourg Cede;;
51;58;BIOBLOCK SCIENTIFIC;Rue Sébastien Brant;67400;ILLKIRCH;;
52;59;BONFIGLIOLI TRANSMIS;14 rue Eugène Pottier;95670;MARLY LA VILLE;;
53;61;BRAMMER;15 Rue Schertz  BP 173;67025;Strasbourg Cede;;
54;62;BRICKMANN ECKBOL.;1 RUE EVARISTE GALOIS;67201;ECKBOLSHEIM;;
55;66;Burkle;27b Rue du Maréchal Lefevre;67100;Strasbourg;;
56;67;BUSCH FRANCE;CE 2922;91029;EVRY CEDEX;;
57;69;C.T.B. CHOFFEL ELECT;23 rang de Veseaux;88202;REMIREMONT / ST;;
58;70;CAB;ZA nord du val de Moder    BP2;67350;NIEDERMODERN;;
59;74;CETAL;42 RUE DES AVIATEURS BP 37;67501;HAGUENAU;;
60;78;CHOFFEL J. - CTB;23 rue du Rang de Vescaux;88202;REMIREMONT CEDE;;
61;81;CLEVER;21 BIS RUE DU COR DE CHASSE;67400;ILLKIRCH;;
62;82;CNPP ENTREPRISE;St Just;27950;SAINT MARCEL;;
63;84;COLETTE;KEERBAAN 70;2160;WONNELGEN;;
64;85;COLLARD PELLISSON;le Balmay;1430;D'IZENAVE;;
65;86;COLMANT CUVELIER;42 rue Louis Braille;59700;MONS EN BAREUIL;;
66;98;DECOPEINT;13 rue du chateau d'Angleterre;67300;SCHILTIGHEIM;;
67;101;DIMACO;14 rue Ch. A. Wurtz      BP19;67202;WOLFISHEIM;;
68;103;DISTEL;ZI NORD;67170;BRUMATH;;
69;104;DISTRIA SCHOETTLE;2 rue du Doubs;67022;STRASBOURG;;
70;108;DUBOR france;ZI CD52 rue des Pyrénées;68490;OTTMARSHEIM;;
71;109;E M G;30 rue des Tuileries;67460;SOUFFELWEYERSHE;;
72;110;E T C P;ZI rue de l'Industrie;67723;HOERDT CEDEX;;
73;111;E.S.I.;1 rue Georges Cuvier Z.A.;67610;LA WANTZENAU;;
74;116;ELECTRICITE STRASBOU;26, Bld du Prés. Wilson;67953;STRASBOURG CEDE;;
75;118;ELECTRO SERVICEMEYER;ZI DE LA FECHT;68126;BENNWIHR-GARE;;
76;119;ELECTRONA;13 Rue Jean-Jaures   BP 27;67381;LINGOLSHEIM;;
77;120;ELMECAU;ZI-RUE DESAIX;67453;MUNDOLSHEIM CDX;;
78;121;ENDRESS + HAUSER;3, rue du Rhin  BP 150;68331;Huningue Cdx;;
79;126;EURODECOUPE;28 Rue des Frères Eberts - B.P;67023;STRASBOURG;;
80;130;AVAC'EAU;4 IMPASSE DENIS PAPIN ZI SUD;67400;ILLKIRCH;;
81;135;FENWICK LINDE;5A RUE DE L'INDUSTRIE BP37;67640;FEGERSHEIM;;
82;137;FERBAT S.A.;11 rue Livio;67025;STRASBOURG CEDE;;
83;139;FEUCHTER & CIE;rue Obermodern;67;BOUXWILLER;;
84;140;FG INOX;ZAC du Baconnet;69700;MONTAGNY;;
85;141;MABEO/FIDEST;2 rue du fort;67023;GEISPOLSHEIM;;
86;142;FLYGT- ITT  POMPE;Z.I  Rue de l'industrie;67640;FEGERSHEIM;;
87;143;FMC FOODTECH;106 Bld Heloise   BP 55;95101;Argenteuil;;
88;144;FORMINOX TECHNOLOGIE;8 rue Aimé Delrue;44120;VERTOU;;
89;152;GARAGE SIMON;5 A avenue de l'energie;67300;BISCHEIM;;
90;153;GAZ DE STRASBOURG;11 Place des Halles;67082;STRASBOURG CEDE;;
91;154;GEMU;1 rue jean Bugatti  BP43 DUPPI;67127;MOLSHEIM CEDEX;;
92;157;GRACO ENERFLUID SA;BP 102;92252;LA GARENNE COLO;;
93;160;KDI/Grimmeissen;7 Rue de Cherbourg   B.P. 43;67026;Strasbourg Cede;;
94;167;HEMA SIDEL;5, rue Hervé Marchand;29556;Quinper Cedex 9;;
95;168;HILD RAYMOND;3 Bld Pasteur;67500;haguenau;;
96;169;HOUTMANN INDUSTRIE;PAEH.6 RUE JEAN MONNET BP50;67038;ECKBOLSHEIM CD2;;
97;170;ISD (inox);13 RUE DE L'ENERGIE  BP154;67723;HOERDT CDX;;
98;172;IGUS;26 Av des pepinieres  medicis;94832;FRESNES CEDEX;;
99;174;IMAJE S.A.;9 Rue Gaspard Monge    BP 110;26501;BOURG LES VALEN;;
100;175;INA ROULEMENTS;93 route de Bitche;67506;HAGUENAU CEDEX;;
101;176;INDUSTRADE;17 RUE ALFRED KASTLER;67305;SCHILTIGHEIM CX;;
102;179;ISOMAT;14 rue des primeveres;67310;WASSELONNE;;
103;181;ITHO DENKI EUROPE;BP 199;73304;CLUSES;;
104;182;BAUMER IVO;BP103;67403;ILLKIRCH CEDEX;;
105;187;JUMO;7 RUE DES DRAPIERS ACTIPOLE B.;57075;METZ;;
106;188;JUNGER ET FILS;17, RUE DES PAÏENS;67720;HOERDT;;
107;190;KARELIS;193 Chassoliere;38340;voreppe;;
108;191;KEHR;6 rue du col vert  ZA VOGELAU;67300;SCHILTIGHEIM;;
109;192;KETTERER;;;;;
110;193;KLEENCARE;20 Rue Lavoisier;95300;PONTOISE;;
111;196;KRIEGER RIMMELIN;8  rue des Sarcelles;67300;SCHILTIGHEIM;;
112;197;Kronen GmbH et Co.;Geweberstrasse 3;77731;Willstätt;;
113;200;LATINPACK;Parc technologique 24 rue du B;91029;EVRY;;
114;201;LEBAS SYSTEME;;67300;SCHILTIGHEIM;;
115;204;LENZE;Rue Albert Einstein;93603;AULNAY SOUS BOI;;
116;207;LINDAB;12 rue de l'Ardèche;67100;STRASBOURG;;
117;212;Loll/Houtmann;2 rue Michaël Faraday;67540;OSTWALD;;
118;213;LOXAM;18 rue de la Rochelle;67100;Strasbourg;;
119;214;Ludwig Patrick;8 Rue des roses;67240;KURTZENHOUSE;;
120;215;LUTETIA;7 RUE DU COLO. DRIANT;95400;ARNOUVILLE LES;;
121;216;MANUMESURE;23 rue Friedolsheiml;67200;STRASBOURG;;
122;217;MANUTAN;Z.I. B.P. 105  -   16 rue Ampè;95506;Gonesse Cedex;;
123;219;MARTONAIR;ZI de NOISIEL 1;77422;MARNE LA VALLEE;;
124;221;MECASEM;11 quai Heydt;67540;OSTWALD;;
125;222;MEDIACO;2 RUE DE L'INDUSTRIE;67725;HOERDT;;
126;223;MELLY INCENDIE;3 rue de la Tuilerie;67115;PLOBSHEIM;;
127;224;MERGER;11 rue des Frères Eberts;67100;STRASBOURG;;
128;226;METTLER;;67000;STRASBOURG;;
129;227;METTLER TOLEDO SA;18-20 Av de la pepinière;78222;VIROFLAY CEDX;;
130;228;MEYER PERFO;14 rue de l'Industrie;67170;BRUMATH;;
131;231;MJP BENSOUSSAN;13 rue du chateau d'angleterre;67300;SCHILTIGHEIM;;
132;233;MOEBS;271 rte de Schirmeck;67036;STRASBOURG CEDE;;
133;234;MONARCH WEISSHAUPT;21 rue A. Kiener;68005;COLMAR CEDEX;;
134;236;MOUVEX;5 rue du Sahel;75012;PARIS;;
135;240;NILFISK;18-20 av des Iris;91944;COURTABOEUF CED;;
136;241;NOMAFA;;67603;SELESTAT CEDEX;;
137;248;OTIS Nord Est;200 route de colmar;67023;STRASBOURG CEDE;;
138;249;OUTILLAGE ASSISTANCE;ZI N°2 Rue de l'embranchement;67116;REICHSTETT;;
139;253;PCM POMPES;Route de Montjean      BP1;49123;CHAMPTOCE SUR L;;
140;255;PNEUMAX;;;;;
141;256;POLYMIX;6 rue de l'Industrie;68126;BENWIHR-GARE;;
142;257;POMPES SIHI;20 rue de Betheny;51100;REIMS;;
143;258;PORTAKABIN;ZAC BENFELD rue de Hollande;67230;BENFELD;;
144;259;PRIMAGAZ;rue de la Poudrerie;37705;Saint Pierre de;;
145;260;PROTIBAT;&5 rue VAUBAN BP 28;67451;MUNDOLSHEIM;;
146;262;PUM;19 Rue de St Nazaire BP2;67026;Strasbourg;;
147;264;RADIOSPARES;RUE NORMAN KING BP453;60031;BEAUVAIS CDX;;
148;265;RAPIDEPLAQUES;34 RUE DES VEAUX;67720;WEYERSHEIM;;
149;268;REGMATHERM UM;10 rue des frères Eberts;67100;STRASBOURG;;
150;269;RENOV CHEMINEES LOBS;ZA 3 Rue GAY LUSSAC;67201;ECKBOLSHEIM;;
151;270;RENTOKIL;12 Impasse Antoine Imbs;67810;Holtzheim;;
152;271;RESSORT INDUSTRIEL;9 Rue de la Batterie Parc Acti;67118;GEISPOLSHEIM GA;;
153;274;RINGENWALD;27 RUE DE CHERBOURG  BP34;67026;STRASBOURG CDX;;
154;280;S.D.E.M.;15 RUE DE BREST;67100;STRASBOURG;;
155;281;SAETTLER;;67;BRUMATH;;
156;282;SAFELINE SA;ZAC de Villepède - Bat A1;91280;SAINT PIERRE DU;;
157;283;SALINS DU MIDI;6 rue Gabriel Péri;54110;VARANGEVILLE;;
158;284;SAMIE;ZI PLAINE DES BOUCHERS105;67022;STRASBOURG CDX;;
159;285;SAMSON REGULATION;1 Rue jacques Corona;69120;VAUX EN VELUN;;
160;286;SANEST;14 RUE DE ROUEN;67000;STRASBOURG;;
161;288;SARMABO;ZA 18 RUE DESAIX;67450;MUNDOLSHEIM;;
162;289;SATECO;ZA RUE DES PRES BP14;67370;TRUCHTERSHEIM;;
163;290;SCHLUMBERGER/ACTARIS;11 Bd Pasteur;67;HAGUENAU;;
164;292;SCOP ES VERT;rue du tramway;67114;ESCHAU;;
165;296;SEMIKRON;130 rue de Lormeil;78501;SARTROUVILLE;;
166;297;SERMES;ZI PLAINE DES BOUCHERS 105;67022;STRASBOURG CDX;;
167;298;SERVITECH;76 R des plaine des Bouchers;67100;STRASBOURG MEIN;;
168;302;SIEMENS HAGUENAU;;;;;
169;303;SIEMENS Maintenance;39-47 Boulevard Ornano;93527;Saint Denis Ced;;
170;304;SITAL;22 RUE DE CHERBOURG BP19;67026;STRASBOURG;;
171;305;SNTIA;69 chemin des pres bouvaux  ZA;74600;SEYNOD;;
172;306;SOCAFLUID;473 rue Edouard HERRIOT;69655;VILLEFRANCHE/SA;;
173;307;S.A.I.;1 rue Alexandre Volta;67450;MUNDOLSHEIM;;
174;309;SONEFI;137 rue de Javel;75015;PARIS;;
175;310;SOPREMA (etancheite);14 RUE St NAZAIRE;67025;STRASBOURG;;
176;311;SPECK POMPES INDUSTR;ZI du Mesnil roux   971 Bld de;76360;BARENTIN;;
177;312;SPIE TRINDEL;B.P. 72;67382;LINGOLSHEIM;;
178;317;STEPHAN;ZAC du Mandinet rue des campan;77185;lognes;;
179;321;TEK;24a rue Joseph-marie Jacquard;67400;ILLKIRCH GRAFFE;;
180;322;TELEMECANIQUE;14 allée des Foulons;67380;LINGOLSHEIM;;
181;323;THERMO EST;ZI Malambas / HAUCONCOURT;57213;MAIZIERES-LES-M;;
182;324;TICE;;67720;HOERDT;;
183;325;TIROMAT C.F.S.;25 rue de claie  ZI angers bea;49070;BEAUCOUZE;;
184;329;TRANSROUTE;12 RUE DE MOLSHEIM     BP 81;67123;WOLXHEIM;;
185;330;TREIF;22 Rue des Tuileries;67170;Souffelweyersheim;info-france@treif.com;
186;333;USOCOME;50-54 rte de Soufflenheim;67501;HAGUENAU;;
187;334;VEGA TECHNIQUES;15, rue du Ried;67150;NORDHOUSE;;
188;346;COURSE ECLAIR;6rue de la tour;67200;STRASBOURG;;
189;350;CLAUS ATELIER;3 Rt d'Eschau;67401;ILLKIRCH;;
190;351;FLUIDAP;Rue du cht angleterre;67300;SCHILTIGHEIM;;
191;352;SCHAEFFER;2 rue de l'industrie;67521;MARLENHEIM;;
192;359;CICAL;;67116;REICHSTETT;;
193;360;BALIN;ZI Route d autrey;88700;RAMBERVILLERS;;
194;361;T S A;8 rue jule PY;88210;MOUSSEY;;
195;362;ELIONA;;;;;
196;363;CFC BANDE TRANSPORT;85 RUE PRINCIPALE;67500;BATZENDORF;info@cfc-alsace.fr;
197;367;ALIAGE CREATION;3 rue des vignes;67330;BOSSELHAUSEN;;
198;370;SEPIB;6 rue de l industrie;67640;FEGERSHEIM;;
199;371;CIAT;4 rue ettore bugatti;67038;ECKBOLSHEIM;;
200;372;JAL;le bourg;71800;GIBLES;;
201;373;V.INGENIERIE;ZA du Ventoue;22400;LAMBALLE;;
202;374;I.R.H.;;;;;
203;376;HANNECARD;;;;;
204;377;BOBET;RN 23;72470;CHAMPAGNE;;
205;379;EST ASCENSEURS;155rt Oberhausbergen;67200;STRASBOOURG;;
206;380;M.A.E.;ZI conneuil 20rue leonard de v;37270;MONTLOUIS;;
207;381;CHAUDRONNERIE DU RIE;8 rue des vergers;67390;SAASENHEIM;;
208;382;Graveleau;;;;;
209;383;BLANCHISSERIE DE L I;32 Rue de la Grossau;67100;STRASBOURG;;
210;384;BARDAHL;25 av des FLANDRE;59290;WASQUEHAL;;
211;385;F C I;ZI Nord;25220;THISE;;
212;386;ERMATEC;rouute de Charnoz;-1800;MEXIMIIEUX;;
213;387;ATIEP;5 Rue de l'europe BP 65;67232;BENFELD;;
214;389;CEPI;via ansaldo 15 ZI villa Selva;47100;FORLI (Italie);;
215;390;EIE;10 ZA DE LA SANDLACH;67500;HAGENAU;;
216;391;MTSE;4 rue Gustave Goldenberg;67700;SAVERNE;;
217;393;STOW;16A av du docteur HOULLION;67600;SELESTAT;;
218;396;ENGRENAGE HPC;58, chemin de la Bruyère;69570;DARDILLY;;
219;397;MAVIFLEX;8-14 RUE VAUCANSON;69150;DECINES;;
220;398;SPENLE;ZONE INDUSTRIELLE N° 1;67490;DETTWILLER;;
221;401;STEIN Energie;34, rue d'Aspach B.P. 70129;68701;CERNAY Cedex;;
222;402;SCM;ZA Le Chêne du Moulin;35600;REDON;;
223;403;ITOH DENKI;490, Avenue des JOURDIES;74807;ST PIERRE FAUCN;;
224;405;JR TECH;122 Avenue de la Resistance;93340;LE RAINCY;;
225;500;ADS(detecteur azote);31 rte DE PARIS  RN 10;78310;COIGNIERES;;
226;501;AGRAFVIT;ZI;89330;St JULIEN SAULT;;
227;502;AIR PRODUCTS CAZORLA;;67300;SCHILTIGHEIM;;
228;503;AIR PRODUCTS FRIQUET;;;;;
229;504;AIR PRODUCTS ASTREI.;;;;;
230;505;AJK EDIMATE;99 RUE PRINCIPALE;67220;LALAYE CHARBES;;
231;506;ALCATEL SAV;;;;;
232;507;ALCATEL COMMERCIAL;2 RUE DE LA FAISANDERIE - BP44;67831;LINGOLSHEIM CX;;
233;508;ALCATEL CDE POSTES;;;;;
234;509;ALCATEL INSTALLATION;;;;;
235;510;ALSACE INFORMATIQUE;18 Rt DU Gl DE GUAULLE BP183;67304;SCHILTIGHEIM CX;;
236;511;ANDRES BERNARD;;;MEISTRATZHEIM;;
237;512;APAVE;AGENCE STRG ZI. BP22;67550;VENDENHEIM;;
238;513;ARMOR INOX;;;;;
239;514;ATELIER REUNIES CADD;29 RUE DE LATTRE DE TASSIGNY;67301;SCHILTIGHEIM CX;;
240;516;BAUWALL;;;;;
241;517;BERKEL AVERY;36 Av DE L'EUROPE;95335;DOMONT;;
242;518;BIEBER;40 RUE LECLERC;67370;DRULINGEN;;
243;519;BLICKLE;Z.A. RUE DU COMMERCE;68420;HERRLISHEIM;info@blickle.fr;
244;520;BOB WOLLEK;;;;;
245;523;BOVIDA;54 RUE DU TIR  BP 304;92003;NANTERRE CDX;;
246;524;BREFFA;ROUTE DE HOERDT;67170;GEUDERTHEIM;;
247;525;BRICKMANN STRASB.;6 Bld DU PRESIDENT WILSON;67000;STRASBOURG;;
248;526;CASTELIN;RUE DU FORT/QUARTIER D'ENTREP;59818;LESQUIN CDX;;
249;527;CATO (melangeur cda);;;;;
250;528;CEGELEC;;;ILLKIRCH;;
251;529;CERBERE;ZI BP 64;52102;SAINT DIZIER;;
252;530;CHARCUTIERS D'ALSACE;22 RUE DE L'INDUSTRIE ZI;67720;HOERDT;;
253;531;CHEZ PIERRE;;;HOCHFELDEN;;
254;532;CHRONOPOSTE;;;;;
255;533;CIDE;8 RUE SAGLIO;67000;STRASBOURG MEIN;;
256;534;CIHAL;ZI 7 RUE DE  L'ATOME;67800;BISCHHEIM;;
257;535;CILLIT CHIMIE;RUE EVARISTE GALOIS ZA MIETEL.;67306;SCHILTIGHEIM;;
258;536;CLEVER;1 A 5 RUE DES CEVENNES-ZI;91090;LISSES;;
259;537;CODEL;ZI 1 Av DE L'ENERGIE;67801;BISCHHEIM CDX;;
260;538;CONTACT 100 (luck);;67000;STRASBOURG;;
261;539;CONTACT 100 (herman);;;;;
262;540;CONVENIENCE FOOD SYS;BP 56;78340;LES CLAYES S/S;;
263;541;COOP;;;;;
264;542;CRAM;;;;;
265;543;CROUZET;;;;;
266;544;CULLIGAN;1 ROUTE DE SCHIRMECK BP20;67120;DUPPIGHEIM;contact@culligan68.fr;
267;546;DAXXA IMPEIMANTE;;;;;
268;547;DEM;21 AVENUE DE LA GARE;69480;ANSE;;
269;548;EBC;;;;;
270;549;ECOTRAL;26 Bvd PRESIDENT WILSON;67953;STRASBOURG;;
271;550;ECIVIS;;;;;
272;551;EIE PORTABLE M.LUTZ;;;;;
273;553;ELECTRICITE DE STRAG;26 Bvd DU P. WILSON;67953;STRASBOURG;;
274;554;ES. AGENCE CLIENT;;;;;
275;555;ELLICO;13-15 RUE DE LA DOUANNE;67000;STRASBOURG;;
276;556;ELOBAU;6 RUE TERNOIS;69003;LYON;contact@elobau-france.fr;
277;557;EMSENS;ZA DU PARC;42490;FRAISSES;;
278;560;EXPRESS 67;;;;;
279;561;FACEN;ZI 3A RUE VAUBAN BP06;67451;MUNDOLSHEIM CDX;;
280;562;FERRAILLAGE;;;;;
281;563;FICHER;;;;;
282;564;FINA (huile);4 RUS J.P. CLAUSE;67300;SCHILTIGHEIM;;
283;565;FINA (prod. d'entre);;;;;
284;566;FRANS BONHOMME;76 Rt DU Gl LECLERC;67450;MUNDOLSHEIM;;
285;567;FRANZ;;;;;
286;568;FREY;;;;;
287;569;GENG  serrurerie;65 RUE DE LA LIBERTEE;67310;WESTOFFEN;;
288;570;GIRARDIN (ramsey);;;;;
289;571;GOLLY CHRISTIANE;;;;;
290;572;GONDRAND;;;;;
291;573;SEALED AIR;RUE St DENIS BP9;28234;EPERNON CDX;;
292;574;SEALED AIR TECH.M.PAURCHE;;;;;
293;575;SEALED AIR SAV  M.CERCEAU;;;;;
294;576;SEALED AIR PIECES;;;;;
295;577;GUIDOT FRANCIS;;;;;
296;578;HABASIT;;68220;LEYMEN;;
297;579;HANNARDT CATHIE;;;;;
298;580;HANNS;8 RUE DU Mal FOCH;67502;HAGUENAU  CDX;;
299;581;HENKEL - ECOLAB SAV;8 RUE ROUGET DE LISLE;92442;ISSY-LES-MOULI.;;
300;582;HENKEL - M.PARENT;;;;;
301;583;HENNINGER;15 RUE DE L'INDUSTRIE BP128;67404;ILLKIRCH;;
302;584;HERAUD JEAN MICHEL;;;;;
303;585;HEXA-PACK;ZAC RUE MARCELIN BERTHELOT;60200;COMPIEGNE;;
304;586;HOEGGER ALPINA;9 RUE DE L'EGLISE BP28;68160;St CROIX MINES;;
305;587;HOEGGER FREDDY PRIVE;;;;;
306;588;HOERDT SUPER VIANDE;3 RUE DE LA GARE;67720;HOERDT;;
307;589;HOWILLER;;;;;
308;590;ILLER;;67120;ALTORF;;
309;591;IPS;;;;;
310;592;JUNG ELECTROMENAGER;;;MOMENHEIM;;
311;593;JUNG CHAUFFAGE;;;PHALSBOURG;;
312;594;JUSSEAU PRIVE;;;SOUFFELWEYERSHM;;
313;595;KAHN;36 RUE DE LA DIGUE BP108;54003;NANCY CDX;;
314;599;KETTERER NICKLES;;;;;
315;600;KNECHT;;;;;
316;601;KRAUSE;IM STOCKACKER 9;79224;UMKIRCH;;
317;602;KRISTOF MICHEL;;;;;
318;603;KS;ZI BP34;67441;MARMOUTIER CDX;;
319;606;LABORENOVE;;;;;
320;607;LEGRAND;;;;;
321;608;LEISNER WILLY;14 RUE DES FRERES EBERTS;67025;STRASBOURG;;
322;609;LORALTEC;BP11 ZA;67110;GUMBRECHTSHOFFE;;
323;610;LUTRANA;;;VENDENHEIM;;
324;611;LUTRANA;957 RUE DE L'HORLOGERIE BP11;62401;BETHUNE CDX;;
325;612;MAJA;TULLASTRASSE 4;77694;KEHL GOLDSCHEUE;;
326;613;MARX;14 RUE FRANCAISE;67240;BISCHWILLER;;
327;614;MECADO;ZI 7 RUE DU ROTHBAECHEL BP23;67241;BISCHWILLER;;
328;615;MECADO 2 SITE;23 RUE DU Gal LECLERC BP 23;67241;BISCHWILLER CDX;;
329;616;MECAZTEC;RUE DU NEUFELD BP1;67720;WEYERSHEIM;;
330;617;MERCEDES;77 RUE DES VIGNES (RN4);67035;WOLFISHEIM;;
331;618;MERCKLING J.P.;HSV;;;;
332;620;MES (HAFA);;;SOUFFELWEYERSM;;
333;621;MONILE FRANCE;;;;;
334;622;MOSSER SANITAIRE;;67500;HAGUENAU;;
335;623;MTS ENVIRONNEMENT;;;SAVERNE;;
336;624;MULTIVAC M.DAOUD;2 PASSAGE FERNAND LEGER;77462;LAGNY SUR MARNS;;
337;626;MULTIVAC M.DALL'ASEN;;;;;
338;628;MULTIVAC M.STRAUB;;;;;
339;629;NUNNES;1 RUE DE LA FORET;67400;ILLKIRCH;;
340;630;NUTRINAL;;;;;
341;631;ORDITEC;;;;;
342;632;OTE;4 RUE DE LA LIZIERE   BP110;67402;ILLKIRCH;;
343;633;OTM;ZI LES PELLETIERS;89100;SOUCY;;
344;634;PHILIPPS TONNY;;;HAGUENAU;;
345;635;PHILIPPS TONNY;8 PLACE DE LA MAIRIE;67240;BISCHWILLER;;
346;637;PLANTERAIE ALSACE;ROUTE DE LA WANTZENAU;67720;HOERDT;;
347;638;POMPAC;;;STRASBOURG;;
348;639;NTT SCHILTIGHEIM;;;;;
349;640;PTT WEYERSHEIM;;;;;
350;641;PTT DERANGEMENT;;;;;
351;642;PTT NUMERIS;;;;;
352;643;PTT RENSEIGNEMENT;;;;;
353;644;RADIOSPARES SOUFFEL.;RUE DES TUILERIES;;SOUFFELWEYERSHE;;
354;645;RHOMBUS;424 AVENUE DE LA COURONNE BP25;76681;EPONE CDX;;
355;648;ROCAGRAF;;;;;
356;649;ROEHRE;RUE DU NEUFELD;67720;WEYERSHEIM;;
357;650;ROWASTOR;;;;;
358;651;SACTE;24 RUE PRINCIPALE;67360;MITSCHDORF;;
359;652;SAEC;BP47 71 ROUTE DE BISCHWILLER;67501;HAGENAU CDX;;
360;653;SAEC M.MEYER;;;;;
361;654;SAGEM;;;STRASBOURG;;
362;655;SANTUCCHI;14 RUE DES TILLEULS;67410;DRUSENHEIM;;
363;656;SAPPI (tefflonnage);;;;;
364;657;SASSARO;ZI BP2;17700;SURGERES;;
365;658;SCHMIDT GRAND RUE;;;;;
366;659;SCHWAB;;;SCWABWILLER;;
367;661;SDEA;10 RUE OBERHAUSBERGEN;67309;SCHILTIGHEIM;;
368;662;SEEVER RONDO;;;;;
369;663;SEHRCO;;;OBERHAUSBERGEN;;
370;664;SEMO (wabco);;;;;
371;665;SERVI-MAC (pieces);2 a 6 AVENUE GALLIENI BP29;94251;GENTILLY CEDEX;;
372;666;SERVI-MAC(SAV);2 a 6 AVENUE GALLIENI BP29;94251;GENTILLY;;
373;667;SIEHR;;;;;
374;668;SLVP (peinture);;;;;
375;669;SOAF;;;DUTTLENHEIM;;
376;670;SOLMETAL;;;;;
377;671;SOLMETAL;;;;;
378;672;SOPLARIL;;;;;
379;673;SOPREMA (boyaux);20 RUE DE KILSTETT BP5;67720;WEYERSHEIM;;
380;674;SPITZER;13 RUE DES TAILLEURS;67500;WEITBRUCH;;
381;675;SPITZER PORTABLE;;;;;
382;676;SRRHU (huile usagee);;;;;
383;677;STALE;ZI FLEVILLE SUD;57710;LUDRES;;
384;678;STALE PORT. RICHARD;;;;;
385;679;STALE AUTRICHE;;;;;
386;680;STAR BAT;;;;;
387;681;STAV;;67452;MUNDOLSHEIM;;
388;682;STEELCO (SNR maint);2 RUE ALFRED KASTLER;67303;SCHILTIGHEIM;;
389;683;STILL SAXBY;BP115;67803;BISCHHEIM CDX;;
390;685;STOPPIL;2 RUE DES TERRES FORTES;77600;CHANTELOUP EN;;
391;686;STRAELI;;;;;
392;687;STRAFOR;;;;;
393;688;STROH EDGAR;;;;;
394;689;SYDEL;R.DU GAILLEC ZI KERYADO BP2834;56312;LORIENT;;
395;691;TOURNUS;;;;;
396;692;TREIF ALLEMAGNE;;;;;
397;693;TREMA;11 RUE ALFRED KASTLER;67300;SCHILTIGHEIM;;
398;694;TVF ecean compta;;;;;
399;695;UBI;;;RENNES;;
400;696;VANDERNOSTENDE;ZIB BP117;59471;SECLIN CDX;;
401;697;WAGNER lumiere nafa;;;;;
402;698;WEBER GOXWILLER;;;GOXWILLER;;
403;699;WEBER M.BERAUER;;;GOXWILLER;;
404;700;WEBER VOITURE ALLEMA;;;;;
405;701;WEBER M.NICHAU ALLEM;FORMERSTASSE 3;35236;BREIDENBACH;;
406;702;WEBER OLSBACH;KARL BENZ STRASSE N.30;77797;OHLSBACH;;
407;703;WIGAND (Hangfix);;;;;
408;704;WILMECA;14 RUE MARIE JOSEPH JACQUARD;67400;ILLKIRCH GRAFF;;
409;705;WOLECK;;;;;
410;706;WURTH;1 RUE DE LA DORDOGNE BP13;67158;ERSTEIN CDX;;
411;707;WURTH PORT.LEOPOLD;;;;;
412;708;A.A.F;Rue William Dian;27620;Gasny;apc@aaf-sa.fr;
413;709;A.D.V   M.Riffel;;;;;
414;710;Abaqueplast;41 Avenue Gaston Monmousseau;93245;Stains;abaqueplast@abaqueplast.fr;
415;711;Abb;;;;;
416;712;ABE;750 Avenue du Dr Jean Bru;47008;Agen;abe47@alphitan.com;
417;713;ABTI;;;;;
418;714;Ageniaa;Parc d'activités de Fleury-sur-orne 544 Avenue des Digues;14123;Ifs;ageniaa@ageniaa.com;
419;715;Air inter;;;;;
420;716;Air Liquide  alsace;Rue Tobias Stimmer;67400;Illkirch Graffenstaden;;
421;717;Alcatel;;;;;
422;719;Allibert;;;;;
423;720;Alpe technologie;;;;;
424;721;Véolia;;;;;
425;722;Alpha plus;;;;;
426;723;Alpina France;Z.A La Forge;68160;Sainte Marie aux Mines;;
427;725;Alsapneu;13 Route d'Obernai;67870;Bischoffsheim;;
428;727;Aluplast;Rue de Niedernai;67210;Obernai;aluplast.ades@gmail.com;
429;728;AMI (Atlas Copco);;;;;
430;729;Ammeraal;Zone indutrielle Rue Marcel Dassault;59474;Seclin;client@ammeraalbeltech.com;
431;730;Andlauer;39 Avenue de la Gare;67560;Rosheim;;
432;731;Anéolia (abiss);19 Rue du Bois de la Remise ZA du Tremblay;91480;Varennes Jarcy;info@aneolia.com;
433;732;AOIP;;;;;
434;733;Approgaz;2 Rue Louis Ampere;67400;Illkirch Graffenstaden;;
435;734;Apro Industrie;ZA Du Marais 1 Avenue Louison Bobet;94120;Fontenay-sous-Bois;info@aproindustrie.com;
436;735;Ascom Technologie;;;;;
437;736;Atem energy;;;;;
438;737;Atic;10 Quartier Le Ried;67850;Herrlisheim;;
439;738;Atlas copco;;;;;
440;739;ATS  France M.Stadler;;;;;
441;740;Audin;;;;;
442;741;Automatisme & contrôle;;;;;
443;742;Avantec;Boulevard Sébastien Brant;67400;Illkirch Graffenstaden;;
444;743;Avery;10 Rue Saule Trapu;91300;Massy;;
445;744;Axair France;100 Boulevard Louis Armand ZI des Chanoux;93331;Neuilly sur Marne;;
446;745;Axians;Rue Tobias Stimmer;67400;Illkirch Graffenstaden;;
447;746;Axima réfrigération;6 Rue de l'Atome;67801;Bischheim;strasbourg.aximaref@engie.com;
448;747;B 2 A;15 Rue Etains;25490;Dampierre les bois;;
449;748;Babcock;10 Allée Grands Paquis;54180;Heillecourt;;
450;749;Bailly J-M;;;;;
451;751;Baron;Rue Lazare Carnot;61006;Alençon;;
452;753;Baruch;14 Rue Jean Marie Lehn;67560;Rosheim;;
453;754;Baumann;6 Rue Ampere;67118;Geispolsheim;info@baumann.fr;
454;755;Becker France;Rue de Cutesson ZA du Bel Air;78512;Rambouillet;becker@becker-france.fr;
455;756;Beltis;16 Rue de la Vallée Yart;78640;Saint Germain de la Grange;contact@beltis.net;
456;757;Berner (n°670388);;;;;
457;758;Bersude;;;;;
458;761;Biro France;7 bis Boulevard Robert Thiboust Serris;77706;Marne la Vallée;info@biro.fr;
459;762;Bizerba;4 Rue de Suède;67230;Benfeld;;
460;763;Blanchisserie de l'Ehn;6 Rue de la Kaltau;67150;Hindisheim;;
461;764;Blet;;;;;
462;766;BM;;;;;
463;767;Bobet;ZI Actipolis 6 Rue de l'Artois;68390;Sausheim;;
464;768;Bobinelec;ZI La Vigie 9 Rue Alfred Kastler;67540;Ostwald;info@bobinelec.fr;
465;769;Bodet;72 Avenue Général de Gaulle;49340;Trémentines;;
466;770;Boehler;16 Rue des Lièvres;67120;Ernolsheim-Bruche;;
467;771;Bongard;32 Route de Wolfisheim;67810;Holtzheim;bongard@bongard.fr;
468;772;Bongard 67;1 Rue du Cimetière;67117;Furdenheim;bongard67@wanadoo.fr;
469;773;Bongard SAV Andrès Sarl;5 Rue de l'énergie;67210;Obernai;;
470;774;Bopack;;;;;
471;775;Bosh pneumatique (linatec);;;;;
472;776;Brezillon;8 Route de Wolfisheim;67200;Eckbolsheim;brezillon.sa@free.fr;
473;777;Bric électronique;8 Rue du faubourg de Saverne;67000;Strasbourg;bric.electronic@wanadoo.fr;
474;778;Brickmann;11 Rue du Schertz;67100;Strasbourg;;
475;779;Brico depot (Mulhouse);4 Rue Robert Schuman;68790;Morschwiller le Bas;;
476;780;Brossette Colmar;19 Rue Edouard Branly;68000;Colmar;brossette.colmar@saint-gobain.com;
477;781;Brossette Meinau;2 Rue du Doubs;67200;Strasbourg;brossette.meinau@saint-gobain.com;
478;782;Brossette Strasbourg;46 Route de Brumath;67460;Souffleweyersheim;brossette.strasbourg@saint-gobain.com;
479;783;Brossette Strasbourg Centre;10 Rue Adele Riton;67000;Strasbourg;brossette.strasbourg_centre@saint-gobain;
480;784;BT France est;4 Avenue de l'Europe - Bussy saint Georges;77607;Marne la Vallée;;
481;785;BT France est Pièces détachées;;;;;
482;786;BT France est SAV;;;;;
483;787;Busch;16 Rue du Bois Chaland;91090;Lisses;busch@busch.fr;
484;788;Cadillac plastique;Chemin départemental 302;67610;La Wantzenau;;
485;789;Camfil;77/81 Boulevard de la Republique;92257;La Garenne Colombes;france.apc@camfil.com;
486;790;Captec S A V  M. Acomat;;;;;
487;791;Carl Stahl  (ligne directe);43 Rue des Tuileries;67460;Souffelweyersheim;manutention@carlstahl.fr;
488;792;Carrier;;;;;
489;793;Castolin (Demande de fiche de données de sécurité);;;;sds@gbk-ingelheim.de;
490;794;Catenne (Gedimat);26 Rue du Général Leclerc;67210;Obernai;contact@catenne.fr;
491;795;CB Equipement;25 Rue Vega;74650;Chavanod;;
492;796;CDA Charcutier d'Alsace;22 Rue de l'Industrie;67720;Hoerdt;;
493;798;Chantalat;ZI La Marquisie;19600;Saint Panthéon de l'Arche;direction @chantalat.fr;
494;799;Châteaux d'eau;139 Rue Rateau - Parc des Damiers;93120;La Courneuve;infos@chateaudeau.com;
495;800;Christ location;19 Rue de la Fontaine;67530;Boersch;christlocations@wanadoo.fr;
496;801;Chrono poste;;;;;
497;802;Chrono poste internationnal;;;;;
498;803;Clemessy  (standard);18 Rue de Thann;68057;Mulhouse;;
499;806;CMO;2 Rue des Bonnes Gens;67210;Obernai;info@cmo-obernai.fr;
500;807;Coframa;117 Rue Charles Michels;93200;Saint Denis;;
501;808;Cometto;ZI - Rue de la Liberté;1480;Jassans-Riottiers;bruno.coutet@cometto.fr;
502;809;Comitronic;34 Allée du Closeau ZI Nord les Richardets;93160;Noisy le Grand;export@comitronic-bti.net;
503;810;Comptoir equip hotelier;;;;;
504;811;Contrôle technique Molsheim Autovision;38 Rue de la Hardt;67120;Molsheim;;
505;812;Couvracier;5 Avenue Dutac;88000;Epinal;;
506;813;CPE Obernai;202 Rue du Général Gouraud;67210;Obernai;;
507;814;CPE Schiltigheim;4 Rue Jean Pierre Clause;67300;Schlitigheim;;
508;815;CTB;;;;;
509;816;CTCB;;;;;
510;817;CTRI;12 Rue des Rustauds;67700;Monswiller;;
511;818;Cucco;BP 128  ZI de FELET;63300;THIERS;;
512;820;Dagard;Route du Stade;23600;Boussac;info@dagard.com;
513;821;DAHMS;34 Rue Oberlin;67000;Strasbourg;;
514;822;Danfoss;1 Bis Avenue Jean d'Alembert;78990;Elancourt;;
515;823;DecoraVerre;;;;;
516;824;Defenssor;;;;;
517;825;DeltaFlex;Rue du Rail;67116;Reischtett;;
518;826;Deltech (société Haury );;;;;
519;827;Denneklein;;;;;
520;828;Dephy;23 Route des Ruelles;89380;Appoigny;contact@dephy-sa.fr;
521;829;Destaco;;;;;
522;830;Diagtech;46 Rue du Village;67170;Hochstett;diagtech.tir@wanadoo.fr;
523;831;Diceep;17-19 Route Nationale;54280;Nancy-Laneuvelotte;diceep@diceep.fr;
524;832;Dicker;2 Route d'Eichhoffen;67140;Andlau;;
525;833;Diffusion service (Technologie);;;;;
526;834;DIGIE France;;;;;
527;835;Dimitro;1 Avenue Guy Denis;77910;Varreddes;a.magliozzi@dimitro.fr;
528;836;Dipac  (M. Bernstein );21 Rue Hirsingue;68200;Mulhouse;;
529;838;Distri air;4 Rue Robert Schuman;54400;Cosnes et Romain;contact@distriair.com;
530;839;DME ( Haessig );;;;;
531;840;DMI;;;;;
532;841;Eberhart M.Stebler;;;;;
533;842;Echamat;65 Rue Principale;67140;Saint Pierre;info@echamat-kernst.com;
534;843;Edenwald;;;;;
535;844;Edmolift;Devant l'Aite 40;4031;Angleur Belgique;info@edmoliftsolutions.com;
536;845;Edwards;;;;;
537;846;Efrapo;1 Rue de Cherbourg;67100;Strasbourg;secretariat.strasbourg@efrapo.com;
538;847;EGT ( vatri );;;;;
539;848;Ehrhart scierie;Rue de Muttersholtz;67600;Hilsenheim;;
540;849;Elcowa;27 Rue de Ruelisheim;68200;Mulhouse;info@elcowa.fr;
541;851;Electro-Rhin;17 Rue Girlenhirsch;67400;Illkirch Graffenstaden;electrorhin-strasbourg@etn.fr;
542;852;Electrowatt;9 Rue de la Gare;67130;Muhlbach Sur Bruche;info@electrowatt.fr;
543;853;Elex;5 Rue Oberlach;68520;Burnhaupt le Bas;info@elex-industrie.com;
544;854;Elis;;;;;
545;857;Elreha;Route de la Grange l'Eveque ZA du Piloaoût;10180;Saint Lye;team@elreha.fr;
546;858;Emerson (leroy-Somer);7 Avenue Valparc;68440;Habsheim;SuccursaleConstMulhouse.ials@emerson.com;
547;859;EMG;;;;;
548;860;EMS Mr Blatmaiger (241);;;;;
549;861;Erhard;;;;;
550;862;ES standard;26 Boulevard du President Wilson;67000;Strasbourg;;
551;864;Espera;12 Rue des Gardes ZAC des petits Ruisseaux;91370;Verrieres Le buisson;espera-france@espera.fr;
552;865;Est manutention (Lev-Est);7 Rue Louis Joseph Gay-Lussac;68000;Colmar;;
553;866;Est ménager;16 Route d'Obernai;67530;Boersch;;
554;867;Esteve;4 Place des Noyers;18220;Rians;info@esteve.fr;
555;868;Ethywag;ZA Schweitzer - 2 Rue de Port Gentil;67401;Illkirch;info@ethywag.fr;
556;869;Eurisol;Place Docteur Jean-Marie Ryckewaert;59114;Steenwaert;;
557;870;Eurocash;90 Route de Hausbergen;67300;Schiltigheim;;
558;871;Eurodiament;;;;;
559;872;Euromaster;;;;;
560;873;Europ équipement;323 Rue de Verdun;59420;Mouvaux;;
561;874;Europart's ( parcker );BP 9   24 r de la Savonnerie;68460;;;
562;875;Europumps;Le pic Les leches;24400;Mussidan;;
563;876;Eurotherm;;;;;
564;877;Evac eau;4 impasse Denis Papin ZI Sud;67400;Illkirch;info@evac-eau.com;
565;878;FAC Mr Lecointe Olivier;;;;;
566;880;FDM;;;;;
567;881;Feidt;20 Rue de la Commanderie;67120;Molsheim;;
568;883;Feralco;Route de Troyes;51122;Sezanne;contact@feralco.fr;
569;884;Ferenbach;;;;;
570;885;Fermeture et service;10 Avenue André Malraux;67400;Illkirch Graffenstaden;;
571;886;Fermod;75 Rue de Richelieu;75002;Paris;contact@fermod.fr;
572;887;Fésia;P.A.E.I du Giessen 1 Rue Brischbach;67750;Scherwiller;;
573;888;Festo;8 Rue du Clos Ste-Catherine;94360;Bry-sur-Marne;technique_fr@festo.com;
574;889;Flojet (A2V SERCOM);;;;;
575;890;FMI;;;;;
576;891;Fnac;;;;;
577;892;Fonderie du Krosenski (moule à viande);;;;;
578;893;Forbeton;31 Rue des Tuileries;67460;Souffelweyhersheim;strasbourg@forbeton-est.fr;
579;894;France air;5 allées des Foulons;67380;;;
580;895;France automatisme;;;;;
581;896;France Télécom;;;;;
582;898;Frey;9 Allée de l'Europe;67140;Barr;;
583;899;Fritec;13 Rue des Frères Lumière;67201;Eckbolsheim;;
584;900;Fritsch;;;;;
585;901;Froid Gilbert;13 Rue Gutenberg;67120;Duttlenheim;;
586;902;Fucks transport;20 Rue Ettore Bugatti;67150;Erstein;contact@transport-fuchs.fr;
587;903;Fulmen;5 Allée des Pierres Mayettes;92636;Gennevilliers;info@exide.fr;
588;904;Gantois;25 Rue des quatres frères Mougeotte;88100;Saint dié des Vosges;contact@gantois.com;
589;905;Garage Gillmann;12 Rue de l'Artisanat;67210;Obernai;;
590;906;Gast;143 Avenue du général de Gaulle;92252;La Garenne Colombes;contact@enerfluid.com;
591;907;GBI;1 Rue Joseph Marie Jacquard;67400;Illkirch Graffenstaden;;
592;908;GEA standard;;;;;
593;909;Général embalage;;;;;
594;910;Geng;;;;;
595;911;Génie climatique de l'est;16 Rue de l'électricité;67800;Hoenheim;;
596;912;Girard Transmissions;ZI Induspal Avenue Joseph Marie Jacquard;64140;Lons;;
597;913;Gouet;Route d'Angers ZA Les Bordages;49310;Montvilliers;contact@gouet.com;
598;914;Graf;45 Route d'Ernolsheim;67120;Dachstein Gare;info@graf.fr;
599;915;Grimmeissen;10 Rue de St Nazaire;67100;Strasbourg;;
600;916;Grosseron;ZAC Hauts de Coueron 4 Rue des Entrepreneurs;44220;Coueron;;
601;917;Grote;;;;;
602;918;Grundfoss;;;;;
603;919;Gruter & marchand;22-24 Rue Lavoisier;92000;Nanterre;contact@gruter-et-marchand.com;
604;920;GTI M.Laurouiray;6 Rue de l'industrie;67114;Eschau;;
605;921;Hafa;9 Rue de l'Industrie;67723;Hoerdt;pfister@hafa.org;
606;922;Hager;132 Boulevard de l'Europe;67210;Obernai;;
607;923;Hansen-Broch;;;;;
608;924;Hardy;;;;;
609;925;Haury;14 Rue de l'Industrie;67720;Hoerdt;haury.sa@wanadoo.fr;
610;926;Heimlich;30 Rue Koenigsmann;67000;Strasbourg;;
611;927;Heinrich;ZA Ecoparc 11 Route Ecospace;67120;Molsheim;;
612;928;Helmke;1 Allée Vert Bois ZI;68840;Pulversheim;helmke@helmke.fr;
613;929;Hercule  ( Binder / Jenny );;;;;
614;930;Herion  ( semo );;;;;
615;931;Höganäs France;8 Rue Gustave Eiffel;44480;Ste Luce sur Loire;info-commercial@hoganas-france.com;
616;932;Horis;17 Rue des Frères Lumières;77292;Mitry-Mory;;
617;933;Hypress;12 Rue Frolen;67118;Geispolsheim;;
618;934;Idpack;ZA bourgneuf;35450;Val d'izé;thomas.lepage@mg-tech.fr;
619;935;IFM électronique;1-3  Rue jean richepin;93192;Noisy le grand;;
620;936;Ilapack France SAV;Alleé lech walesa;77185;Lognes;;
621;937;Industechnic Colmar;2 Avenue France;68310;Wittelsheim;infro@industechnic,com;
622;938;Industechnic Hoerdt;3 Rue des Paiens Z-A;67720;Hoerdt;contact.strasbourg@industechnic.com;
623;941;Infratec;;;;;
624;942;Inotec;12 Rue de scandinavie;91967;Les ulis;info@inotec.fr;
625;943;Interinox;7 Avenue maréchal de lattre de tassigny;69330;Meyzieu;;
626;944;Interlift;ZAC de jailly 7 Alleé des forgerons;57535;Marange silvange;info@interlift,fr;
627;945;Interoll (Quirion);Z.I de Kerannou bp34;29250;Sait-paul-de-leon;fr.sales@interroll.com;
628;946;Interscan;;;;ptreuil@interscan.fr;
629;947;Isofroid;6 Rue de la montée;67370;Schnersheim;;
630;948;ITB structure;6 Rue Ettore Bugatti;67150;Erstein;itb-structure@wanadoo.fr;
631;949;ITE;;;;;
632;950;ITW Mima System;;;;;
633;951;IVO;;;;;
634;952;Ix Manu;;;;;
635;953;Jeckel;;;;;
636;954;Jehu (Moquette);;;;;
637;955;Jost;8 Avenue de la Gare;67560;Rosheim;;
638;956;JR Tech;;;;;
639;958;Jungheinrich;11 Allée des Foulons;67380;Lingolsheim;;
640;959;Jura Filtration;;;;;
641;960;Kallfass;2 Rue Erasme Gerber;67770;Saverne;;
642;961;Kapp;;;;;
643;962;Kaufler;ZA Les Parpareux;22602;Loueac;contact@kaufler.com;
644;963;KEB;;;;;
645;964;Kerber;4 Rue Chanoise Gyss;67210;Obernai;;
646;965;Kergroise;;;;;
647;966;Kiloutou Sélestat;1 Rue Westrich;67600;Sélestat;agence0162@kiloutou.fr;
648;967;Koehler  (M. Hoganas);16 Rue de Guebwiller;67100;Strasbourg;carrelages.koehler@wanadoo.fr;
649;968;Kriwan;3 Avenue Karl Marx;69120;Vaulx en Velin;kriwan.france@kirwan.com;
650;969;Kronenbourg;Boulevard de l'Europe;67210;Obernai;;
651;971;KSB  France;;;;;
652;972;Kubler   (niveau);;;;;
653;973;Kugler;;;;;
654;974;La Française;;;;;
655;975;Lagarde;;;;;
656;976;Lahet;27 Zone d'activité de Bel air;38110;Sainte Blandine;contact@lahet.fr;
657;977;LAIR;;;;;
658;978;Laporte;;;;;
659;979;Laser Jet;Zone Industrielle de la Forge;68160;Saint Marie aux Mines;;
660;980;Lassoudry;24 Rue du Bois Chaland;91090;Lisses;info@bfrgroupe.com;
661;981;Lattitude;;;;;
662;982;Le corvaisier  (M. Wagner);29 Route de la Wantzenau;67800;Hoenheim;;
663;983;Leder;;;;;
664;984;Lehmann;;;;;
665;985;Lehmbecker Claude;6 Rue du Girlenhirsch;67400;Illkirch-Graffenstaden;contact@lehmbecker.fr;
666;987;Leuze;ZI Nord Torcy;77202;Marne la Vallée;infos@leuze-electronic.fr;
667;988;Levy Frey;55 Rue Jean Giraudoux;67033;Strasbourg;contact@levyfrey.fr;
668;989;Liftop M.Allegre;1 Rue du Tyrol;44240;La Chapelle sur Erdre;contact@liftop.fr;
669;990;Limatec;ZI Route de la Dranse;74500;Amphion;;
670;991;Linck  (Epfig);3 Rue des artisans;67680;Epfig;info@linck-chaudronnerie.fr;
671;992;Linpack;;;;;
672;993;LMIA  (SIA);18 Rue de l'Indutrie;67720;Hoerdt;info@lmia.fr;
673;994;Locaservice;2 Rue des Ateliers;67210;Obernai;;
674;995;Loew;15 Rue de l'Ardeche;67100;Strasbourg;infeau@loew.tm.fr;
675;996;Loma;120 Rue Jean Jaures;92300;Levallois Perret;;
676;998;Lubrification Enginners;;;;;
677;999;Lutetia;ZA du pré de la Dame Jeanne;68128;Plailly;;
678;1000;Lycée agricole;44 Boulevard de l'Europe;67210;Obernai;;
679;1001;Lyonnaise des eaux;200 Rue Ladhof;68000;Colmar;;
680;1002;Mado;21 Rue de l'Hermitage;67700;Saverne;info@mado-France.fr;
681;1003;Magntic Autocontrol;4 Rue Pierre Simon de Laplace;57070;Metz;;
682;1004;MAI;;;;;
683;1005;MAJA France;Espace Plein sud 2 12 Rue des Hérons;67960;Entzheim;info-fr@maja.de;
684;1006;Manupac;5 Avenue de la Compagnie Moreau;89500;Villeneuve sur Yonne;;
685;1007;Marbett;;;;;
686;1008;Markem Imaje;9 Rue Gaspard Monge;26501;Bourg les Valence;;
687;1009;Martens;1 Rue de l'Industrie;67116;Reichstett;;
688;1010;MASA;Rue de Rosheim;67870;Bischoffsheim;;
689;1011;Mastra EST roulettes;1 Rue Jean Perrin;67201;Eckbolsheim;info@mastra.fr;
690;1012;Mat inox decort;;;;;
691;1013;Matal;;;;;
692;1014;Maxon;12, Chaussée Jules Cesar;95526;;;
693;1015;Maxpax;;;;;
694;1017;Md production;;;;;
695;1018;Mecapack (multibox);ZI de Montifau;85700;Pouzauges;;
696;1019;Mécaplastic;;;;;
697;1020;Melitta  MCE;10 Rue Ampère;67120;Duttlenheim;mce7@wanadoo.fr;
698;1021;Merlin-gerin  (M.  Schneider);;;;;
699;1022;Metausel;23 Rue Robertsau;67800;Bischeim;;
700;1023;Mettler;18/20 Avenue de la Pépinière;78220;Viroflay;;
701;1025;MIC;;;;;
702;1026;Michelsonne;81 Route de Colmar;67600;Sélestat;;
703;1027;Micitel;;;;;
704;1028;Miroiterie du Piemont;4 Rue de l'Atelier;67201;Obernai;mir.piemont@orange.fr;
705;1029;MLI;;;;;
706;1030;Mobil France (M. Carvalho);;;;;
707;1031;Moessner;8 Rue de l'Artisanat;67210;Obernai;info@ericmoessner.com;
708;1032;Molsheim pièces auto;43 Rue de Dachtein;67120;Molsheim;molsheimpiecesautos@orange.fr;
709;1033;Mondial frigo;7 Rue Maurice Audibert;69800;St Priest;mondial-frigo@mondial-frigo.fr;
710;1034;Motovario;42 Rue de l'Avenir;69740;Genas;;
711;1035;Motovario;;;;;
712;1036;MSA;;;;;
713;1037;Muller daniel;8 Rue du Commerce;67118;Geispolsheim;contact@danielmuller.fr;
714;1038;Multibox;;;;;
715;1039;Multiconcept;6 Impasse Joffre;67202;Wolfisheim;;
716;1040;Multitech;5 rue des sarcelles;67300;;;
717;1041;Multivac;2 Passage Fernand Léger;77400;Saint Thibault des Vignes;;
718;1042;MVI;8 Rue Louis Blanc;77680;Roissy en Brie;;
719;1043;Nacel +;ZA Sud 13A Rue de l'Energie;67210;Obernai;obernai@nacelplus.fr;
720;1044;Nacelle 2000;Parc d'activité du Rosenmeer;67560;Rosheim;info@nacelle2000.fr;
721;1045;Naudin;;;;;
722;1046;Nergeco;8 Rue de l'industrie;43220;Dunieres;sales@nergeco.com;
723;1047;Neuf télécom;;;;;
724;1048;Neugart France;9B Rue Georges Carpak;77127;Lieu saint;;
725;1049;Nimatec;16 Rue de l'Artisanat;67210;Obernai;;
726;1050;Nordson;Parc de l'Esplanade - 2 Rue Charles Friedel;77462;Lagny sur Marne;nordson.france@fr.nordson.com;
727;1051;Norgren France;4Boulevard Michael Faraday Serris;77716;Marne la Vallée;norgren@norgren.fr;
728;1052;Novoferm;3 Impasse des Buchets;90800;Baviliers;;
729;1053;Nydegger;13 Rue des Freres Lumiere;68000;Colmar;nydegger@nydegger.fr;
730;1054;Oldham - Hawker;Rue Alexander Fleming;62033;Arras;jean-hilaire.bar@fr.enersys.com;
731;1055;Opendate;ZI Attichy;60350;Attichy;info@opendatefrance.com;
732;1056;Opticom;;;;;
733;1058;Otelo;Parc d'Activité des Béthunes - 11 Avenue du fiel;95067;Cergy Pontoise;;
734;1060;PBI Standard;14 Rue de Ris;91170;Viry-Chatillon;courrier@pbi-france.com;
735;1061;Peintisol;865 Route de Feyzin;69360;Solaize;contact@peintisol.fr;
736;1062;Pepperl & fuschs;12 Avenue des Tropiques;91955;Courtaboeuf;info@fr.pepperl-fuchs.com;
737;1063;Pfeiffer et May;27 Rue du maréchal Lefèbvre;67100;Strasbourg;;
738;1064;Pilz France;1 Rue Jacob Mayer;67037;Strasbourg;siege@pilz-france.fr;
739;1066;Poly-clip  (M. Grassi);;;;;
740;1068;Ponot;ZI de Lavée;43200;Yssingeaux;ponot@ponot.com;
741;1069;Pontticia;;;;;
742;1070;Pressing Le Colza;24 Rue du Général Baegert;67210;Obernai;;
743;1071;Prima;;;;;
744;1072;Probateau;31 Rue Pierre Cardin;68100;Mulhouse;;
745;1073;Pro'coupe  (M. Bourg);;;;;
746;1074;Promobat;;;;;
747;1075;Propack;1 Place d'Uranie;94340;Joinville le pont;;
748;1076;Proxyma;27 Rue de Fer à Chaval;95200;Sarcelles;;
749;1077;Puls France;24 chemin des Verrières;69260;Charbonnière les bains;puls@puls-power.fr;
750;1078;PUM Plastiques;11 Rue Denis papin;67400;Illkirch;;
751;1079;Quenard;62 Rue Général Borson;73000;Chambéry;contact@quenard.com;
752;1080;Quiri hydromécanique;46 Route de Bischwiller;67304;Schiltigheim;quiri.hydro@quiri.com;
753;1081;Rademaker;5 Allée du Commandant Mouchotte;37000;Tours;;
754;1084;Raffel  (kirch);Rue Raymond Morin;57400;Sarrebourg;;
755;1086;Reca;1 Rue Alexandre Volta;67450;Mundolsheim;info@reca.fr;
756;1088;REIS;2 Rue du commerce;67150;Gerstheim;etsreis@sfr.fr;
757;1089;Renault Himber;;;;;
758;1091;Rexel;Zone d'activité du Rosenmeer  Rue Jean Marie Lehn;67560;Rosheim;;
759;1092;Rhin location;;;;;
760;1093;Rick;9 Rue des Alliés;67120;Molsheim;corick67@orange.com;
761;1094;Ricoh;3 Rue Icare;67960;Entzheim;;
762;1095;Riestchle;15/17 Boulevard Du général de Gaulle;92542;Montrouge;er.fr@gardnerdenver.com;
763;1096;Rivapack;;;;;
764;1097;RMEI;;;;;
765;1098;Robatherm;2A Rue de l'Expansion;67210;Obernai;;
766;1099;Rolesco;58 Rue des Vignes;67202;Wolfisheim;strasbourg@rolesco.fr;
767;1100;Rondo;;;;info.fr@rondo-online.com;
768;1101;Roth et Fils;7 Rue Général Gouraud;67210;Obernai;paul.roth.fils@wanadoo.fr;
769;1102;Rühle;;;;;
770;1103;Ruiu;3 Rue du Girlenhirsch;67400;Illkirch;info@ruiu.fr;
771;1104;SAEI;;;;;
772;1105;Samep;6 Rue adele Riton;67000;Strasbourg;;
773;1107;Sapelmeca;Parc d'Arianne 1 ZAC Pierre Blanche;68900;St Priest;;
774;1108;Sapim (Rosheim);6 Rue Mentelin;67560;Rosheim;;
775;1110;Sartorius;Parc d'affaires Technopolis 3 Avenue du Canada;91978;Les Ulis;service.client@sartorius.com;
776;1112;Scanvaegt  Marel food systems;;;;;
777;1113;Schall;;;;;
778;1114;Schaltbau;6 Rue Désiré Granet;95104;Argenteuil;secretariat@schaltbaufrance.com;
779;1116;Schoettlé;11 RUE SCHERTZ;67022;;;
780;1117;Schramm;19 Route de Dahlenheim;67520;Kirchheim;info@schramm.fr;
781;1118;Schreiber;7 Rue Roedel;67210;Obernai;;
782;1119;Schroll;6 Rue Cherbourg;67100;Strasbourg;;
783;1120;Schweyer;6 Rue de l'artisanat;67703;Saverne;info@schweyer.fr;
784;1121;Sdel alsace;;;;;
785;1122;Sealpac;ZA du Moulin 18-24 Rue du Noyer;95700;Roissy en France;;
786;1123;sécuritas alarme feu;6 rue Ettore Bugatti;67038;;;
787;1124;Sedep;P.A.DU GAILLEC;56270;PLOEMEUR;;
788;1125;Selfco;11 rue de TANIN      BP 26;67831;TANNERIES CEDEX;;
789;1127;SEPT;267 Bis, Quai d'Alsace;59502;DOUAI;sept-roulettes@wanadoo.fr;
790;1128;Sercom   M. Flojet;;;;;
791;1129;Séria;ZI du Mesnil Rue du Conillot;50406;Granville;;
792;1130;Seroba;;;;;
793;1131;Serven;10 Rue Livio;67100;Strasbourg;groupe-serven@serven.fr;
794;1132;Servo;;;;;
795;1133;SEW Usocome;54 Route de Soufflenheim;67506;Haguenau;sew@usocome.com;
796;1134;Seydelmann;;;;;
797;1135;Sick France;21 Boulevard de Beaubourg;77184;Emerainville;;
798;1136;Sicli;;;;;
799;1137;Siehr (Rosheim);PA Nord du Rosenmeer;67560;Rosheim;;
800;1138;SIG positec;;;;;
801;1139;Signalisation sécurité;;;;;
802;1140;SLPI;;;;;
803;1141;SMC;ZA Le chene du Moulin;35600;Bains sur Oust;;
804;1142;Sobovia;8 Rue du Thal;67210;obernai;;
805;1143;Socotec;;;;;
806;1144;Sodicome;;;;;
807;1145;Sofiac;;;;;
808;1146;Sogelub;26 Rue Louis Carette;59780;Camphin en peleve;France@sogelub.fr;
809;1147;Sogem;;;;;
810;1148;Sojit;;;;;
811;1149;Sol metal resine;;;;;
812;1150;Solu-tech;1 Rue du Doubs;67100;Strasbourg;;
813;1151;Somiram;3 Rue de l'Usine;90340;Chevremont;contact@somiram.fr;
814;1152;Sorac;;;;;
815;1153;Sorelec;;;;;
816;1154;Sorest;;;;;
817;1155;Soretrac;;;;;
818;1156;SPH;;;;;
819;1158;Stamp;;;;;
820;1160;Staubli;;;;;
821;1161;Steible;;;;;
822;1162;Sterkelec;;;;;
823;1163;Steute;;;;;
824;1165;STM;;;;;
825;1166;Stoekel;;;;;
826;1167;Streb et weil;;;;;
827;1168;Stutz;;;;;
828;1171;Taxi colis;;;;;
829;1172;Technibeton;ZI Rue des Fleurs;68190;Ungersheim;est@technique-beton.com;
830;1173;Technic  fluide;Route de la côte Bleue;13220;Chateaux Neuf les Martigues;contact@technic-fluides.com;
831;1174;Techniques électriques;Rue Ettore Bugatti;67150;Erstein;;
832;1175;Technisoudure;18 Rue du Tramway;67114;Eschau;etude@technisoudure.fr;
833;1176;Technocarne;29 Route de la Wantzenau;67800;Hoenheim;;
834;1177;Technopack;;;;;
835;1179;Télémécanique;;;;;
836;1180;Telewig;;;;;
837;1181;TEM;19 Rue des Maraîchers;57602;Forbach;info@testo.fr;
838;1182;Tennant France;;;;;
839;1183;Testo;14 Rue de l'Industrie;67560;Rosheim;;
840;1184;Tetra  Laval  Food;;;;;
841;1185;Thealec - SRD;;;;;
842;1186;Thébaud;19 Bis Rue de la Libération;54760;Faulx;;
843;1187;Therma;;;;;
844;1188;Therm-industrie;;;;;
845;1189;Thermo koering;7 Rue de la Miette;2190;Guignicourt;;
846;1191;Tissemetal;;;;;
847;1192;Tixit;;;;tixit@tixit.com;
848;1193;Toledo;3 Rue du fort;67118;Geispolsheim;;
849;1194;Townsend;;;;;
850;1195;Trane;;;;;
851;1196;Transmatik;4 Rue Esslos;51430;Bezannes;;
852;1198;TSA;;;;;
853;1199;Ultrafilter;6 Rue de la Croix Jacquebot;95450;Vigny;CAP-fi@donaldson.com;
854;1201;Velum;Route de Molsheim;67870;Bischoffsheim;contact@velum.biz;
855;1202;Vendee concept;57 Rue Alexander Fleming ZI Sud Belle Place;85000;La Roche sur Yon;vendeeconcept@vendeeconcept.fr;
856;1203;Munch manutention;7 Rue Katenbach;68116;Guewenheim;mmi@gutzwiller-group.com;
857;1204;Vertal  M. Lessinger;ZA des Wisches;67133;Schirmeck;;
858;1205;Video-jet  Marconi data system;16 Avnue Quebec;91140;VilleBon sur Yvette;;
859;1206;Vmi;ZI Nord;85607;Montaigu;;
860;1207;Vow;;;;;
861;1208;Vulcanic;48 Rue Louis Ampere;93330;Neuilly sur Marne;;
862;1209;Walter;;;;;
863;1210;Warner électric;7 Rue Champfleur;49124;Saint Barthelemy d'Anjou;esales.warnerfr@warnerelectric-eu.com;
864;1211;Wavin;;;;;
865;1212;Wehr;;;;;
866;1213;Welch;;;;;
867;1214;Westinghouse;;;;;
868;1215;Wietrich Obernai;2 Rue de l'Artisanat;67210;Obernai;;
869;1216;Wolf-gimatec;;;;;
870;1217;Worex;66 Route de Sartrouville;78230;Le pecq;;
871;1218;Zwiebel;20 Grand'Rue;67700;Saint Jean Saverne;commercial@zwiebel.fr;
872;1219;2MBI;;;;;
873;1220;ACFRI;;;;;
874;1221;BERTHOLD MARX;;;;;
875;1222;C2AI;;;;;
876;1223;CB EMBALLAGE;;;;;
877;1224;CFC;;;;;
878;1225;DEXIS;;;;;
879;1226;DIMITRO;;;;;
880;1227;ELEX;;;;;
881;1228;FISHER SCIENTIFIC;;;;;
882;1229;EUAUTOMATION;;;;;
883;1230;FERMETURES ET SERVICES;;;;;
884;1231;HEINTZ;;;;;
885;1232;ILAPAK;;;;;
886;1233;INTERROLL;;;;;
887;1234;JV LA FRANCAISE;;;;;
888;1235;KAESER;;;;;
889;1236;LASERJET;;;;;
890;1237;LEFROID PECOMARK;;;;;
891;1238;MABEO;;;;;
892;1239;MASTRA;;;;;
893;1240;OREXAD;;;;;
894;1241;PRECIA MOLEN;;;;;
895;1242;RS;;;;;
896;1243;RS COMPONENTS;;;;;
897;1244;SCHMERSAL;;;;;
898;1245;SEYDELMANN;;;;;
899;1246;SFERACO;;;;;
900;1247;SIGEA;;;;;
901;1248;SOCOFEM;;;;;
902;1249;US RECO;;;;;
903;1250;MAREL;;;;;
904;1251;DUNGS;5 Allée des vendanges;77183;Croissy Beaubourg;;
905;1252;ALSAFLAM;1C RUE DU TISSAGE;68500;ISSENHEIM;alsaflam@alsaflam.com;
906;APAAX;APAAX;;;;info@apaax.com;
907;ATOOKLYN;ATOOKLYN;147 MAurice Collin;88140;CONTREXEVILLE;contact@atooklyn.fr;
908;C1;A. Baumann;6 rue Ampère;67118;Geispolsheim;;
909;C100;DIAGTECH;32 rue du village;67170;HOCHSTETT;;
910;C101;DIMACO;14 rue Ch. A. Wurtz      BP19;67202;WOLFISHEIM;;
911;C102;DIPAC ELECTRONIQ. IN;15 Impasse Saint-Hubert;68790;MORSCHWILLER LE;;
912;C103;DISTEL;ZI NORD;67170;BRUMATH;;
913;C104;DISTRIA SCHOETTLE;2 rue du Doubs;67022;STRASBOURG;;
914;C108;DUBOR france;ZI CD52 rue des Pyrénées;68490;OTTMARSHEIM;;
915;C109;E M G;30 rue des Tuileries;67460;SOUFFELWEYERSHE;;
916;C110;E T C P;ZI rue de l'Industrie;67723;HOERDT CEDEX;;
917;C111;E.S.I.;1 rue Georges Cuvier Z.A.;67610;LA WANTZENAU;;
918;C114;EFRAPO;1 RUE DU CHERS BP10;67026;STRASBOURG;;
919;C116;ELECTRICITE STRASBOU;26, Bld du Prés. Wilson;67953;STRASBOURG CEDE;;
920;C117;ELECTRORHIN (siemen);;;;;
921;C118;ELECTRO SERVICEMEYER;ZI DE LA FECHT;68126;BENNWIHR-GARE;;
922;C119;ELECTRONA;13 Rue Jean-Jaures   BP 27;67381;LINGOLSHEIM;;
923;C120;ELMECAU;ZI-RUE DESAIX;67453;MUNDOLSHEIM CDX;;
924;C121;ENDRESS + HAUSER;3, rue du Rhin  BP 150;68331;Huningue Cdx;;
925;C123;ESPERA FRANCE;Rue Augustin Fresnel;92167;ANTONY;;
926;C124;ETS POMPAC;1 rue du Doubs;67028;STRASBOURG CEDE;;
927;C125;ETS SIEHR;37 rte du Rhin;67027;STRASBOURG CEDE;;
928;C126;EURODECOUPE;28 Rue des Frères Eberts - B.P;67023;STRASBOURG;;
929;C127;EUROPART'S;BP 9   24 r de la Savonnerie;68460;LUTTERBACH;;
930;C13;AIR LIQUIDE;IMPASSE DENIS PAPIN ZI SUD;67400;ILLKIRCH;;
931;C130;AVAC'EAU;4 IMPASSE DENIS PAPIN ZI SUD;67400;ILLKIRCH;;
932;C135;FENWICK LINDE;5A RUE DE L'INDUSTRIE BP37;67640;FEGERSHEIM;;
933;C137;FERBAT S.A.;11 rue Livio;67025;STRASBOURG CEDE;;
934;C138;FESTO;10 RUE DE LA DURANCE;;;;
935;C139;FEUCHTER & CIE;rue Obermodern;67;BOUXWILLER;;
936;C14;AIR PRODUCTS STAND.;;;;;
937;C140;FG INOX;ZAC du Baconnet;69700;MONTAGNY;;
938;C141;MABEO/FIDEST;2 rue du fort;67023;GEISPOLSHEIM;;
939;C142;FLYGT- ITT  POMPE;Z.I  Rue de l'industrie;67640;FEGERSHEIM;;
940;C143;FMC FOODTECH;106 Bld Heloise   BP 55;95101;Argenteuil;;
941;C144;FORMINOX TECHNOLOGIE;8 rue Aimé Delrue;44120;VERTOU;;
942;C145;FRANCE AIR;5 allées des Foulons;67380;LINGOLSHEIM;;
943;C147;FRITEC;13 rue des freres lumiere;67201;ECKBOLSHEIM;;
944;C152;GARAGE SIMON;5 A avenue de l'energie;67300;BISCHEIM;;
945;C153;GAZ DE STRASBOURG;11 Place des Halles;67082;STRASBOURG CEDE;;
946;C154;GEMU;1 rue jean Bugatti  BP43 DUPPI;67127;MOLSHEIM CEDEX;;
947;C156;GOUET SA;Rue Lavernot;76260;EU;;
948;C157;GRACO ENERFLUID SA;BP 102;92252;LA GARENNE COLO;;
949;C160;KDI/Grimmeissen;7 Rue de Cherbourg   B.P. 43;67026;Strasbourg Cede;;
950;C167;HEMA SIDEL;5, rue Hervé Marchand;29556;Quinper Cedex 9;;
951;C168;HILD RAYMOND;3 Bld Pasteur;67500;haguenau;;
952;C169;HOUTMANN INDUSTRIE;PAEH.6 RUE JEAN MONNET BP50;67038;ECKBOLSHEIM CD2;;
953;C170;ISD (inox);13 RUE DE L'ENERGIE  BP154;67723;HOERDT CDX;;
954;C171;IFM ELECTRONIC;B.P. 226;73374;LE BOURGET-DU-L;;
955;C172;IGUS;26 Av des pepinieres  medicis;94832;FRESNES CEDEX;;
956;C173;ILAPACK;RUE LECH WALESA;77437;MARNE LA VALLE;;
957;C174;IMAJE S.A.;9 Rue Gaspard Monge    BP 110;26501;BOUR LES VALENC;;
958;C175;INA ROULEMENTS;93 route de Bitche;67506;HAGUENAU CEDEX;;
959;C176;INDUSTRADE;17 RUE ALFRED KASTLER;67305;SCHILTIGHEIM CX;;
960;C177;INTERROLL;Postfach 2251/2252;D-429;WERMELSKIRCHEN;;
961;C178;ISOFROID;15 route de Durningen;67370;AVENHEIM;;
962;C179;ISOMAT;14 rue des primeveres;67310;WASSELONNE;;
963;C180;ITB;6 rue Etore Bugatti;67150;ERSTEIN;;
964;C181;ITHO DENKI EUROPE;BP 199;73304;CLUSES;;
965;C182;BAUMER IVO;BP103;67403;ILLKIRCH CEDEX;;
966;C187;JUMO;7 RUE DES DRAPIERS ACTIPOLE B.;57075;METZ;;
967;C188;JUNGER ET FILS;17, RUE DES PAÏENS;67720;HOERDT;;
968;C19;ALIMAT TREMBLAY;11 rue Henri Farman;93297;TREMBLAY EN FRA;;
969;C190;KARELIS;193 Chassoliere;38340;voreppe;;
970;C191;KEHR;6 rue du col vert  ZA VOGELAU;67300;SCHILTIGHEIM;;
971;C192;KETTERER;;;;;
972;C193;KLEENCARE;20 Rue Lavoisier;95300;PONTOISE;;
973;C196;KRIEGER RIMMELIN;8  rue des Sarcelles;67300;SCHILTIGHEIM;;
974;C197;Kronen GmbH et Co.;Geweberstrasse 3;77731;Willstätt;;
975;C199;REXEL LA VOLTAMPERE;BP 27;67311;SCHILTIGHEIM;;
976;C2;CASTOLIN FRANCE;;;;service.commercial@castolin.fr;
977;C20;ALMET;3 rue Ettore Bugatti      BP34;67038;STRASBOURG CEDE;;
978;C200;LATINPACK;Parc technologique 24 rue du B;91029;EVRY;;
979;C201;LEBAS SYSTEME;;;SCHILTIGHEIM;;
980;C204;LENZE;Rue Albert Einstein;93603;AULNAY SOUS BOI;;
981;C207;LINDAB;12 rue de l'Ardèche;67100;STRASBOURG;;
982;C208;18 RUE DESAIX;ZA RUE DESAIX;67450;MUNDOLSHEIM;;
983;C21;ALPINA FRANCE;ZA la forges;68160;St CROIX AUX MI;;
984;C212;Loll/Houtmann;2 rue Michaël Faraday;67540;OSTWALD;;
985;C213;LOXAM;18 rue de la Rochelle;67100;Strasbourg;;
986;C214;Ludwig Patrick;8 Rue des roses;67240;KURTZENHOUSE;;
987;C215;LUTETIA;7 RUE DU COLO. DRIANT;95400;ARNOUVILLE LES;;
988;C216;MANUMESURE;23 rue Friedolsheiml;67200;STRASBOURG;;
989;C217;MANUTAN;Z.I. B.P. 105  -   16 rue Ampè;95506;Gonesse Cedex;;
990;C218;MARTENS;26, rue de l'Industrie B.P. 82;67173;BRUMATH;;
991;C219;MARTONAIR;ZI de NOISIEL 1;77422;MARNE LA VALLEE;;
992;C220;MASTRA EST ROULETTE;PARC D'ACTIVITE 1, RUE JEAN PE;67201;STRASBOURG;;
993;C221;MECASEM;11 quai Heydt;67540;OSTWALD;;
994;C222;MEDIACO;2 RUE DE L'INDUSTRIE;67725;HOERDT;;
995;C223;MELLY INCENDIE;3 rue de la Tuilerie;67115;PLOBSHEIM;;
996;C224;MERGER;11 rue des Frères Eberts;67100;STRASBOURG;;
997;C226;METTLER;;;STRASBOURG;;
998;C227;METTLER TOLEDO SA;18-20 Av de la pepinière;78222;VIROFLAY CEDX;;
999;C231;MJP BENSOUSSAN;13 rue du chateau d'angleterre;67300;SCHILTIGHEIM;;
1000;C233;MOEBS;271 rte de Schirmeck;67036;STRASBOURG CEDE;;
1001;C234;MONARCH WEISSHAUPT;21 rue A. Kiener;68005;COLMAR CEDEX;;
1002;C236;MOUVEX;5 rue du Sahel;75012;PARIS;;
1003;C238;MEDAN;5 rue des sarcelles;67300;SCHILTIGHEIM;;
1004;C239;MULTIVAC;;;;;
1005;C24;AUDIT MAINTENANCE IN;1 rue de l Espagne;67230;BENFELD;;
1006;C240;NILFISK;18-20 av des Iris;91944;COURTABOEUF CED;;
1007;C241;NOMAFA;;67603;SELESTAT CEDEX;;
1008;C248;OTIS Nord Est;200 route de colmar;67023;STRASBOURG CEDE;;
1009;C249;OUTILLAGE ASSISTANCE;ZI N°2 Rue de l'embranchement;67116;REICHSTETT;;
1010;C25;ALSACE PESAGE;Z.A.-B.P. 13;67720;Weyersheim;;
1011;C253;PCM POMPES;Route de Montjean      BP1;49123;CHAMPTOCE SUR L;;
1012;C254;PILZ FRANCE;11 rue Jacob Mayer;67037;STRASBOURG;;
1013;C255;PNEUMAX;ZI NORD PARADIES BP42;67601;SELESTAT;;
1014;C256;POLYMIX;6 rue de l'Industrie;68126;BENWIHR-GARE;;
1015;C257;POMPES SIHI;20 rue de Betheny;51100;REIMS;;
1016;C258;PORTAKABIN;ZAC BENFELD rue de Hollande;67230;BENFELD;;
1017;C259;PRIMAGAZ;rue de la Poudrerie;37705;Saint Pierre de;;
1018;C26;ALSIA;19 , ROUTE DE BISCHWILLER BP34;67301;SCHILTIGHEIM CX;;
1019;C260;PROTIBAT;&5 rue VAUBAN BP 28;67451;MUNDOLSHEIM;;
1020;C261;PROXYMA;24 Rue Theophile Vacher;95160;MONTMORENCY;;
1021;C262;PUM;19 Rue de St Nazaire BP2;67026;Strasbourg;;
1022;C263;RADEMAKER;75 rue du général de Gaulle;95210;St GRACIEN;;
1023;C264;RADIOSPARES;RUE NORMAN KING BP453;60031;BEAUVAIS CDX;;
1024;C265;RAPIDEPLAQUES;34 RUE DES VEAUX;67720;WEYERSHEIM;;
1025;C268;REGMATHERM UM;10 rue des frères Eberts;67100;STRASBOURG;;
1026;C269;RENOV CHEMINEES LOBS;ZA 3 Rue GAY LUSSAC;67201;ECKBOLSHEIM;;
1027;C27;ANDRES Bernard;298A rue du moulin;67210;MEISTRATZEIM;;
1028;C270;RENTOKIL;;;;;
1029;C271;RESSORT INDUSTRIEL;9 Rue de la Batterie Parc Acti;67118;GEISPOLSHEIM GA;;
1030;C272;RICK;9, rue des Alliés;67120;Molsheim;;
1031;C273;RIETSCHLE Cial;8 RUE DES CHAMPS;68220;HESINGUE;;
1032;C274;RINGENWALD;27 RUE DE CHERBOURG  BP34;67026;STRASBOURG CDX;;
1033;C280;S.D.E.M.;15 RUE DE BREST;67100;STRASBOURG;;
1034;C281;SAETTLER;;67;BRUMATH;;
1035;C282;SAFELINE SA;ZAC de Villepède - Bat A1;91280;SAINT PIERRE DU;;
1036;C283;SALINS DU MIDI;6 rue Gabriel Péri;54110;VARANGEVILLE;;
1037;C284;SAMIE;ZI PLAINE DES BOUCHERS105;67022;STRASBOURG CDX;;
1038;C285;SAMSON REGULATION;1 Rue jacques Corona;69120;VAUX EN VELUN;;
1039;C286;SANEST;14 RUE DE ROUEN;67000;STRASBOURG;;
1040;C287;SAPIM INOX;6 rue mentelin;67560;ROSHEIM;;
1041;C288;SARMABO;ZA 18 RUE DESAIX;67450;MUNDOLSHEIM;;
1042;C289;SATECO;ZA RUE DES PRES BP14;67370;TRUCHTERSHEIM;;
1043;C29;APAVE;2,RUE THIERS- BP 1347;68056;MULHOUSE CEDEX;;
1044;C290;SCHLUMBERGER/ACTARIS;11 Bd Pasteur;67;HAGUENAU;;
1045;C291;Schoettlé;11 RUE SCHERTZ;67022;Strasbourg;;
1046;C292;SCOP ES VERT;rue du tramway;67114;ESCHAU;;
1047;C293;SECURITAS;6 rue Ettore Bugatti;67038;STRASBOURG CEDE;;
1048;C294;RONDO;PAE les pins;67319;WASSELONNE;;
1049;C295;SELFCO;11 rue de TANIN      BP 26;67831;TANNERIES CEDEX;;
1050;C296;SEMIKRON;130 rue de Lormeil;78501;SARTROUVILLE;;
1051;C297;SERMES;ZI PLAINE DES BOUCHERS 105;67022;STRASBOURG CDX;;
1052;C298;SERVITECH;76 R des plaine des Bouchers;67100;STRASBOURG MEIN;;
1053;C299;SEW USOCOM;48-54 Route de Soufflenheim  B;67506;Haguenau Cedex;;
1054;C30;API;2 Place de Lattre de Tassigny;67300;Schiltigheim;;
1055;C300;SICK;;;PARIS;;
1056;C302;SIEMENS HAGUENAU;;;;;
1057;C303;SIEMENS Maintenance;39-47 Boulevard Ornano;93527;Saint Denis Ced;;
1058;C304;SITAL;22 RUE DE CHERBOURG BP19;67026;STRASBOURG;;
1059;C305;SNTIA;69 chemin des pres bouvaux  ZA;74600;SEYNOD;;
1060;C306;SOCAFLUID;473 rue Edouard HERRIOT;69655;VILLEFRANCHE/SA;;
1061;C307;S.A.I.;1 rue Alexandre Volta;67450;MUNDOLSHEIM;;
1062;C309;SONEFI;137 rue de Javel;75015;PARIS;;
1063;C31;APLIFIL;ZI de l Arquerie;27270;BROGLIE;;
1064;C310;SOPREMA (etancheite);14 RUE St NAZAIRE;67025;STRASBOURG;;
1065;C311;SPECK POMPES INDUSTR;ZI du Mesnil roux   971 Bld de;76360;BARENTIN;;
1066;C312;SPIE TRINDEL;B.P. 72;67382;LINGOLSHEIM;;
1067;C317;STEPHAN;ZAC du Mandinet rue des campan;77185;lognes;;
1068;C321;TEK;24a rue Joseph-marie Jacquard;67400;ILLKIRCH GRAFFE;;
1069;C322;TELEMECANIQUE;14 allée des Foulons;67380;LINGOLSHEIM;;
1070;C323;THERMO EST;ZI Malambas / HAUCONCOURT;57213;MAIZIERES-LES-M;;
1071;C324;TICE;;67720;HOERDT;;
1072;C325;TIROMAT C.F.S.;25 rue de claie  ZI angers bea;49070;BEAUCOUZE;;
1073;C329;TRANSROUTE;12 RUE DE MOLSHEIM     BP 81;67123;WOLXHEIM;;
1074;C330;TREIF;16 RUE DE L'INDUSTRIE;67170;BRUMATH;;
1075;C333;USOCOME;50-54 rte de Soufflenheim;67501;HAGUENAU;;
1076;C334;VEGA TECHNIQUES;15, rue du Ried;67150;NORDHOUSE;;
1077;C335;VIDEOJET;Parc Gutenberg- 7 voie la card;91127;PALAISEAU CEDEX;;
1078;C345;SYDEL;BP 2834         rue du Gaillec;56312;LORIENT;;
1079;C346;COURSE ECLAIR;6rue de la tour;67200;STRASBOURG;;
1080;C348;DICEEP;19 rt nationale;54280;LANEUVELOTTE;;
1081;C349;san cassiano;;;;;
1082;C350;CLAUS ATELIER;3 Rt d'Eschau;67401;ILLKIRCH;;
1083;C351;FLUIDAP;Rue du cht angleterre;67300;SCHILTIGHEIM;;
1084;C352;SCHAEFFER;2 rue de l'industrie;67521;MARLENHEIM;;
1085;C359;CICAL;;67116;REICHSTETT;;
1086;C360;BALIN;ZI Route d autrey;88700;RAMBERVILLERS;;
1087;C361;T S A;8 rue jule PY;88210;MOUSSEY;;
1088;C362;ELIONA;;;;;
1089;C363;CFC BANDE TRANSPORT;85 RUE PRINCIPALE;67500;BATZENDORF;info@cfc-alsace.fr;
1090;C364;SARTORIUS;4 rue Emile Baudot;91127;PALAISEAU CEDEX;;
1091;C367;ALIAGE CREATION;3 rue des vignes;67330;BOSSELHAUSEN;;
1092;C370;SEPIB;6 rue de l industrie;67640;FEGERSHEIM;;
1093;C371;CIAT;4 rue ettore bugatti;67038;ECKBOLSHEIM;;
1094;C372;JAL;le bourg;71800;GIBLES;;
1095;C373;V.INGENIERIE;ZA du Ventoue;22400;LAMBALLE;;
1096;C374;I.R.H.;;;;;
1097;C375;DIROY;;;;;
1098;C376;HANNECARD;;;;;
1099;C377;BOBET;RN 23;72470;CHAMPAGNE;;
1100;C378;PONOT;ZI de Lavée;43200;YSSINGEAUX;;
1101;C379;EST ASCENSEURS;155rt Oberhausbergen;67200;STRASBOOURG;;
1102;C380;M.A.E.;ZI conneuil 20rue leonard de v;37270;MONTLOUIS;;
1103;C381;CHAUDRONNERIE DU RIE;8 rue des vergers;67390;SAASENHEIM;;
1104;C382;Graveleau;;;;;
1105;C383;BLANCHISSERIE DE L I;32 Rue de la Grossau;67100;STRASBOURG;;
1106;C384;BARDAHL;25 av des FLANDRE;59290;WASQUEHAL;;
1107;C385;F C I;ZI Nord;25220;THISE;;
1108;C386;ERMATEC;rouute de Charnoz;-1800;MEXIMIIEUX;;
1109;C387;ATIEP;5 Rue de l'europe BP 65;67232;BENFELD;;
1110;C388;AXIMA ACTIS SPK;rue de l'atome;67801;BISCHHEIM;;
1111;C389;CEPI;via ansaldo 15 ZI villa Selva;47100;FORLI (Italie);;
1112;C390;EIE;10 ZA DE LA SANDLACH;67500;HAGENAU;;
1113;C391;MTSE;4 rue Gustave Goldenberg;67700;SAVERNE;;
1114;C393;STOW;16A av du docteur HOULLION;67600;SELESTAT;;
1115;C394;MAXON;12, Chaussée Jules Cesar;95526;CERGY PONTOISE;www.maxoncorp.com;
1116;C395;SEDEP;P.A.DU GAILLEC;56270;PLOEMEUR;;
1117;C396;ENGRENAGE HPC;58, chemin de la Bruyère;69570;DARDILLY;www.hpeurope.com;
1118;C397;MAVIFLEX;8-14 RUE VAUCANSON;69150;DECINES;;
1119;C398;SPENLE;ZONE INDUSTRIELLE N° 1;67490;DETTWILLER;deborah@spenle.fr;
1120;C399;IDPACK;ZA DU BOURGNEUF;35450;VAL d'IZE;;
1121;C40;SCHMERSAL France;8 rue Raoul Follereau;38180;SEYSSINS;;
1122;C400;SERVEN;10, RUE LIVIO;67100;STRASBOURG;;
1123;C401;STEIN Energie;34, rue d'Aspach B.P. 70129;68701;CERNAY Cedex;;
1124;C402;SCM;ZA Le Chêne du Moulin;35600;REDON;;
1125;C403;ITOH DENKI;490, Avenue des JOURDIES;74807;ST PIERRE FAUCN;;
1126;C404;MECAPACK;ZI de Montifaut;87500;POUZAUGES;;
1127;C405;JR TECH;122 Avenue de la Resistance;93340;LE RAINCY;;
1128;C42;AVERY;10-12 rue du Saule trapu  BP 2;91882;MASSY;;
1129;C44;B.D.L. Tambour Moteu;ZI de KERANNOU  BP34;29250;ST POL DE LEON;;
1130;C45;BAERMANN;Port du Rhin;67100;STRASBOURG;;
1131;C47;BALZINGER;18, Rte DU Gl DE GUAULLE;67300;SCHILTIGHEIM;;
1132;C49;BARUCH ET FILS;5 r de Dorlisheim;67560;ROSHEIM;;
1133;C500;ADS(detecteur azote);31 rte DE PARIS  RN 10;78310;COIGNIERES;;
1134;C501;AGRAFVIT;ZI;89330;St JULIEN SAULT;;
1135;C502;AIR PRODUCTS CAZORLA;;;SCHILTIGHEIM;;
1136;C503;AIR PRODUCTS FRIQUET;;;;;
1137;C504;AIR PRODUCTS ASTREI.;;;;;
1138;C505;AJK EDIMATE;99 RUE PRINCIPALE;67220;LALAYE CHARBES;;
1139;C506;ALCATEL SAV;;;;;
1140;C507;ALCATEL COMMERCIAL;2 RUE DE LA FAISANDERIE - BP44;67831;LINGOLSHEIM CX;;
1141;C508;ALCATEL CDE POSTES;;;;;
1142;C509;ALCATEL INSTALLATION;;;;;
1143;C51;BAUR & Cie;11 Boulvard CASTELNAU;67601;SELESTAT cedex;;
1144;C510;ALSACE INFORMATIQUE;18 Rt DU Gl DE GUAULLE BP183;67304;SCHILTIGHEIM CX;;
1145;C511;ANDRES BERNARD;;;MEISTRATZHEIM;;
1146;C512;APAVE;AGENCE STRG ZI. BP22;67550;VENDENHEIM;;
1147;C513;ARMOR INOX;;;;;
1148;C514;ATELIER REUNIES CADD;29 RUE DE LATTRE DE TASSIGNY;67301;SCHILTIGHEIM CX;;
1149;C515;BAUR;11 , Blv. CASTELNEAU;67600;SELESTAT;;
1150;C516;BAUWALL;;;;;
1151;C517;BERKEL AVERY;36 Av DE L'EUROPE;95335;DOMONT;;
1152;C518;BIEBER;40 RUE LECLERC;67370;DRULINGEN;;
1153;C519;BLICKLE;Z.A. RUE DU COMMERCE;68420;HERRLISHEIM;;
1154;C520;BOB WOLLEK;;;;;
1155;C521;BOBET M.KNOR;;;MULHOUSE;;
1156;C522;BONGARD;;;;;
1157;C523;BOVIDA;54 RUE DU TIR  BP 304;92003;NANTERRE CDX;;
1158;C524;BREFFA;ROUTE DE HOERDT;67170;GEUDERTHEIM;;
1159;C525;BRICKMANN STRASB.;6 Bld DU PRESIDENT WILSON;67000;STRASBOURG;;
1160;C526;CASTELIN;RUE DU FORT/QUARTIER D'ENTREP;59818;LESQUIN CDX;;
1161;C527;CATO (melangeur cda);;;;;
1162;C528;CEGELEC;;;ILLKIRCH;;
1163;C529;CERBERE;ZI BP 64;52102;SAINT DIZIER;;
1164;C530;CHARCUTIERS D'ALSACE;22 RUE DE L'INDUSTRIE ZI;67720;HOERDT;;
1165;C531;CHEZ PIERRE;;;HOCHFELDEN;;
1166;C532;CHRONOPOSTE;;;;;
1167;C533;CIDE;8 RUE SAGLIO;67000;STRASBOURG MEIN;;
1168;C534;CIHAL;ZI 7 RUE DE  L'ATOME;67800;BISCHHEIM;;
1169;C535;CILLIT CHIMIE;RUE EVARISTE GALOIS ZA MIETEL.;67306;SCHILTIGHEIM;;
1170;C536;CLEVER;1 A 5 RUE DES CEVENNES-ZI;91090;LISSES;;
1171;C537;CODEL;ZI 1 Av DE L'ENERGIE;67801;BISCHHEIM CDX;;
1172;C538;CONTACT 100 (luck);;;STRASBOURG;;
1173;C539;CONTACT 100 (herman);;;;;
1174;C54;BENSOUSSAN;13 ru du château d'angleterre;67300;schiltigheim;;
1175;C540;CONVENIENCE FOOD SYS;BP 56;78340;LES CLAYES S/S;;
1176;C541;COOP;;;;;
1177;C542;CRAM;;;;;
1178;C543;CROUZET;;;;;
1179;C544;CULLIGAN;1 ROUTE DE SCHIRMECK BP20;67120;DUPPIGHEIM;;
1180;C545;DANFOSS;;;;;
1181;C546;DAXXA IMPEIMANTE;;;;;
1182;C547;DEM;21 AVENUE DE LA GARE;69480;ANSE;;
1183;C548;EBC;;;;;
1184;C549;ECOTRAL;26 Bvd PRESIDENT WILSON;67953;STRASBOURG;;
1185;C55;BERTHOLD MAX & CIE S;23 rue Saglio;67100;STRASBOURG MEIN;;
1186;C550;ECIVIS;;;;;
1187;C551;EIE PORTABLE M.LUTZ;;;;;
1188;C552;EIE (port.M.Segau);;;;;
1189;C553;ELECTRICITE DE STRAG;26 Bvd DU P. WILSON;67953;STRASBOURG;;
1190;C554;ES. AGENCE CLIENT;;;;;
1191;C555;ELLICO;13-15 RUE DE LA DOUANNE;67000;STRASBOURG;;
1192;C556;ELOBAU;6 RUE TERNOIS;69003;LYON;;
1193;C557;EMSENS;ZA DU PARC;42490;FRAISSES;;
1194;C558;ESTEVE;;18220;RIANS LES AIX..;;
1195;C559;ETYWAG (ATOS);13 RUE DE L'INDUSTRIE;67401;ILLKIRCH CDX;;
1196;C560;EXPRESS 67;;;;;
1197;C561;FACEN;ZI 3A RUE VAUBAN BP06;67451;MUNDOLSHEIM CDX;;
1198;C562;FERRAILLAGE;;;;;
1199;C563;FICHER;;;;;
1200;C564;FINA (huile);4 RUS J.P. CLAUSE;67300;SCHILTIGHEIM;;
1201;C565;FINA (prod. d'entre);;;;;
1202;C566;FRANS BONHOMME;76 Rt DU Gl LECLERC;67450;MUNDOLSHEIM;;
1203;C567;FRANZ;;;;;
1204;C568;FREY;;;;;
1205;C569;GENG  serrurerie;65 RUE DE LA LIBERTEE;67310;WESTOFFEN;;
1206;C57;Binder & Jenny;14 Rue du Marechal Lefebvre BP;67022;Strasbourg Cede;;
1207;C570;GIRARDIN (ramsey);;;;;
1208;C571;GOLLY CHRISTIANE;;;;;
1209;C572;GONDRAND;;;;;
1210;C573;GRACE;RUE St DENIS BP9;28234;EPERNON CDX;;
1211;C574;GRACE TECH.M.PAURCHE;;;;;
1212;C575;GRACE SAV  M.CERCEAU;;;;;
1213;C576;GRACE PIECES;;;;;
1214;C577;GUIDOT FRANCIS;;;;;
1215;C578;HABASIT;;68220;LEYMEN;;
1216;C579;HANNARDT CATHIE;;;;;
1217;C580;HANNS;8 RUE DU Mal FOCH;67502;HAGUENAU  CDX;;
1218;C581;HENKEL - ECOLAB SAV;8 RUE ROUGET DE LISLE;92442;ISSY-LES-MOULI.;;
1219;C582;HENKEL - M.PARENT;;;;;
1220;C583;HENNINGER;15 RUE DE L'INDUSTRIE BP128;67404;ILLKIRCH;;
1221;C584;HERAUD JEAN MICHEL;;;;;
1222;C585;HEXA-PACK;ZAC RUE MARCELIN BERTHELOT;60200;COMPIEGNE;;
1223;C586;HOEGGER ALPINA;9 RUE DE L'EGLISE BP28;68160;St CROIX MINES;;
1224;C587;HOEGGER FREDDY PRIVE;;;;;
1225;C588;HOEGGER FREDDY  VOIT;;;;;
1226;C589;HOERDT SUPER VIANDE;3 RUE DE LA GARE;67720;HOERDT;;
1227;C59;BONFIGLIOLI TRANSMIS;14 rue Eugène Pottier;95670;MARLY LA VILLE;;
1228;C590;HOWILLER;;;;;
1229;C591;ILLER;;67120;ALTORF;;
1230;C592;IPS;;;;;
1231;C593;JUNG ELECTROMENAGER;;;MOMENHEIM;;
1232;C594;JUNG CHAUFFAGE;;;PHALSBOURG;;
1233;C595;JUSSEAU PRIVE;;;SOUFFELWEYERSHM;;
1234;C596;KAHN;36 RUE DE LA DIGUE BP108;54003;NANCY CDX;;
1235;C597;KAHN M. VALERO;;;;;
1236;C598;KAPP CARROSSERIE;;;;;
1237;C599;KETTERER NICKLES;;;;;
1238;C60;BONGARD;36 rue Principale;67112;BREUSCHWICKERSH;;
1239;C600;KNECHT;;;;;
1240;C601;KRAUSE;IM STOCKACKER 9;79224;UMKIRCH;;
1241;C602;KRISTOF MICHEL;;;;;
1242;C603;KS;ZI BP34;67441;MARMOUTIER CDX;;
1243;C604;KULIKOWSKI;;;;;
1244;C605;KULIKOWSKI VOITURE;;;;;
1245;C606;LABORENOVE;;;;;
1246;C607;LEGRAND;;;;;
1247;C608;LEISNER WILLY;14 RUE DES FRERES EBERTS;67025;STRASBOURG;;
1248;C609;LORALTEC;BP11 ZA;67110;GUMBRECHTSHOFFE;;
1249;C61;BRAMMER;15 Rue Schertz  BP 173;67025;Strasbourg Cede;;
1250;C610;LUTRANA;;;VENDENHEIM;;
1251;C611;LUTRANA;957 RUE DE L'HORLOGERIE BP11;62401;BETHUNE CDX;;
1252;C612;MAJA;TULLASTRASSE 4;77694;KEHL GOLDSCHEUE;;
1253;C613;MARX;14 RUE FRANCAISE;67240;BISCHWILLER;;
1254;C614;MECADO;ZI 7 RUE DU ROTHBAECHEL BP23;67241;BISCHWILLER;;
1255;C615;MECADO 2 SITE;23 RUE DU Gal LECLERC BP 23;67241;BISCHWILLER CDX;;
1256;C616;MECAZTEC;RUE DU NEUFELD BP1;67720;WEYERSHEIM;;
1257;C617;MERCEDES;77 RUE DES VIGNES (RN4);67035;WOLFISHEIM;;
1258;C618;MERCKLING J.P.;HSV;;;;
1259;C619;MERLIN GERIN;;;ILLKIRCH;;
1260;C62;BRICKMANN ECKBOL.;1 RUE EVARISTE GALOIS;67201;ECKBOLSHEIM;;
1261;C620;MES (HAFA);;;SOUFFELWEYERSM;;
1262;C621;MONILE FRANCE;;;;;
1263;C622;MOSSER SANITAIRE;;67500;HAGUENAU;;
1264;C623;MTS ENVIRONNEMENT;;;SAVERNE;;
1265;C624;MULTIVAC M.DAOUD;2 PASSAGE FERNAND LEGER;77462;LAGNY SUR MARNS;;
1266;C625;MULTIVAC M.BERTHOLD;;;;;
1267;C626;MULTIVAC M.DALL'ASEN;;;;;
1268;C627;MULTIVAC M.CHEVALIER;;;;;
1269;C628;MULTIVAC M.STRAUB;;;;;
1270;C629;NUNNES;1 RUE DE LA FORET;67400;ILLKIRCH;;
1271;C630;NUTRINAL;;;;;
1272;C631;ORDITEC;;;;;
1273;C632;OTE;4 RUE DE LA LIZIERE   BP110;67402;ILLKIRCH;;
1274;C633;OTM;ZI LES PELLETIERS;89100;SOUCY;;
1275;C634;PHILIPPS TONNY;;;HAGUENAU;;
1276;C635;PHILIPPS TONNY;8 PLACE DE LA MAIRIE;67240;BISCHWILLER;;
1277;C636;PHILIPPS FRANCIS;;;;;
1278;C637;PLANTERAIE ALSACE;ROUTE DE LA WANTZENAU;67720;HOERDT;;
1279;C638;POMPE PAC;;;STRASBOURG;;
1280;C639;NTT SCHILTIGHEIM;;;;;
1281;C640;PTT WEYERSHEIM;;;;;
1282;C641;PTT DERANGEMENT;;;;;
1283;C642;PTT NUMERIS;;;;;
1284;C643;PTT RENSEIGNEMENT;;;;;
1285;C644;RADIOSPARES SOUFFEL.;RUE DES TUILERIES;;SOUFFELWEYERSHE;;
1286;C645;RHOMBUS;424 AVENUE DE LA COURONNE BP25;76681;EPONE CDX;;
1287;C646;RIETSCHLE Pieces;;;;;
1288;C647;RIETSCHLE SAV;;;;;
1289;C648;ROCAGRAF;;;;;
1290;C649;ROEHRE;RUE DU NEUFELD;67720;WEYERSHEIM;;
1291;C65;Brossette BTI;13 Rue du Havre;67100;Strasbourg;;
1292;C650;ROWASTOR;;;;;
1293;C651;SACTE;24 RUE PRINCIPALE;67360;MITSCHDORF;;
1294;C652;SAEC;BP47 71 ROUTE DE BISCHWILLER;67501;HAGENAU CDX;;
1295;C653;SAEC M.MEYER;;;;;
1296;C654;SAGEM;;;STRASBOURG;;
1297;C655;SANTUCCHI;14 RUE DES TILLEULS;67410;DRUSENHEIM;;
1298;C656;SAPPI (tefflonnage);;;;;
1299;C657;SASSARO;ZI BP2;17700;SURGERES;;
1300;C658;SCHMIDT GRAND RUE;;;;;
1301;C659;SCHWAB;;;SCWABWILLER;;
1302;C66;Burkle;27b Rue du Maréchal Lefevre;67100;Strasbourg;;
1303;C660;SCHWEYER;ZI 6 R DE L'ARTISANAT BP 116;67703;SAVERNE;;
1304;C661;SDEA;10 RUE OBERHAUSBERGEN;67309;SCHILTIGHEIM;;
1305;C662;SEEVER RONDO;PAE LES PINS;67319;WASSELONNE;;
1306;C663;SEHRCO;;;OBERHAUSBERGEN;;
1307;C664;SEMO (wabco);;;;;
1308;C665;SERVI-MAC (pieces);2 a 6 AVENUE GALLIENI BP29;94251;GENTILLY CEDEX;;
1309;C666;SERVI-MAC(SAV);2 a 6 AVENUE GALLIENI BP29;94251;GENTILLY;;
1310;C667;SIEHR;;;;;
1311;C668;SLVP (peinture);;;;;
1312;C669;SOAF;;;DUTTLENHEIM;;
1313;C67;BUSCH FRANCE;CE 2922;91029;EVRY CEDEX;;
1314;C670;SOLMETAL;;;;;
1315;C671;SOLMETAL;;;;;
1316;C672;SOPLARIL;;;;;
1317;C673;SOPREMA (boyaux);20 RUE DE KILSTETT BP5;67720;WEYERSHEIM;;
1318;C674;SPITZER;13 RUE DES TAILLEURS;67500;WEITBRUCH;;
1319;C675;SPITZER PORTABLE;;;;;
1320;C676;SRRHU (huile usagee);;;;;
1321;C677;STALE;ZI FLEVILLE SUD;57710;LUDRES;;
1322;C678;STALE PORT. RICHARD;;;;;
1323;C679;STALE AUTRICHE;;;;;
1324;C680;STAR BAT;;;;;
1325;C681;STAV;;67452;MUNDOLSHEIM;;
1326;C682;STEELCO (SNR maint);2 RUE ALFRED KASTLER;67303;SCHILTIGHEIM;;
1327;C683;STILL SAXBY;BP115;67803;BISCHHEIM CDX;;
1328;C684;STOEFFLER M.WALTER;;;;;
1329;C685;STOPPIL;2 RUE DES TERRES FORTES;77600;CHANTELOUP EN;;
1330;C686;STRAELI;;;;;
1331;C687;STRAFOR;;;;;
1332;C688;STROH EDGAR;;;;;
1333;C689;SYDEL;R.DU GAILLEC ZI KERYADO BP2834;56312;LORIENT;;
1334;C69;C.T.B. CHOFFEL ELECT;23 rang de Veseaux;88202;REMIREMONT / ST;;
1335;C690;TELEMECANIQUE;;;;;
1336;C691;TOURNUS;;;;;
1337;C692;TREIF ALLEMAGNE;;;;;
1338;C693;TREMA;11 RUE ALFRED KASTLER;67300;SCHILTIGHEIM;;
1339;C694;TVF ecean compta;;;;;
1340;C695;UBI;;;RENNES;;
1341;C696;VANDERNOSTENDE;ZIB BP117;59471;SECLIN CDX;;
1342;C697;WAGNER lumiere nafa;;;;;
1343;C698;WEBER GOXWILLER;;;GOXWILLER;;
1344;C699;WEBER M.BERAUER;;;GOXWILLER;;
1345;C70;CAB;ZA nord du val de Moder    BP2;67350;NIEDERMODERN;;
1346;C700;WEBER VOITURE ALLEMA;;;;;
1347;C701;WEBER M.NICHAU ALLEM;FORMERSTASSE 3;35236;BREIDENBACH;;
1348;C702;WEBER OLSBACH;KARL BENZ STRASSE N.30;77797;OHLSBACH;;
1349;C703;WIGAND (Hangfix);;;;;
1350;C704;WILMECA;14 RUE MARIE JOSEPH JACQUARD;67400;ILLKIRCH GRAFF;;
1351;C705;WOLECK;;;;;
1352;C706;WURTH;1 RUE DE LA DORDOGNE BP13;67158;ERSTEIN CDX;;
1353;C707;WURTH PORT.LEOPOLD;;;;;
1354;C708;CONTENUR;3 RUE DE LA CLAIRE;69009;LYON;bertrand.crama@contenur.com;
1355;C709;FESIA;PAEI DU GIESSEN;67750;SCHERWILLER;info@fesia.eu;
1356;C74;CETAL;42 RUE DES AVIATEURS BP 37;67501;HAGUENAU;;
1357;C76;CFS France S.A.S.;25, rue de la Claie B.P. 90114;49071;BEAUCOUZE;;
1358;C78;CHOFFEL J. - CTB;23 rue du Rang de Vescaux;88202;REMIREMONT CEDE;;
1359;C81;CLEVER;21 BIS RUE DU COR DE CHASSE;67400;ILLKIRCH;;
1360;C82;CNPP ENTREPRISE;St Just;27950;SAINT MARCEL;;
1361;C84;COLETTE;KEERBAAN 70;2160;WONNELGEN;;
1362;C85;COLLARD PELLISSON;le Balmay;1430;D'IZENAVE;;
1363;C86;COLMANT CUVELIER;42 rue Louis Braille;59700;MONS EN BAREUIL;;
1364;C9;ADDITIF;4 rue Monnieres;39100;FOUCHERANS;;
1365;C94;CTRI;8  Rue de la poste  BP 89;67702;SAVERNE CEDX;;
1366;C95;CUCCO;BP 128  ZI de FELET;63300;THIERS;;
1367;C97;DAHMS ELECTRONIC;11 rue Ehrmann;67000;STRASBOURG;;
1368;C98;DECOPEINT;13 rue du chateau d'Angleterre;67300;SCHILTIGHEIM;;
1369;C99;DEPHY;42, ROUTE DES RUELLES;89380;APPOIGNY;;
1370;CGR;CGR;;;;;
1371;CIM PRO;CIM PRO;;;;;
1372;CLIMALIFE DEHON;CLIMALIFE DEHON;;;;jkostic@climalife.dehon.com;
1373;COVAL;COVAL;VACUUM COMPONENTS BATIMENT 1;26120;MONTELIMAR;aurelie.pommier@coval.com;
1374;DS MECA;DS MECA;;;;;
1375;ENGELHARDT;ENGELHARDT;;;;;
1376;EUROCOMPUTER;EUROCOMPUTER;;;;berenice.haye@eurocomputer.fr;
1377;FILLPACK;FILLPACK;FILLPACK;29510;BRIEC;b.keravec@fillpack.com;
1378;FIMOR;FIMOR;210 rue du POLYGONE CEDEX2;72058;LE MANS;mhr@fimor.fr;
1379;GETRA;C100;;;;;
1380;HYPRED;HYPRED;55 Bd Jules VERGER;35803;DINARD;justine.cadran@hypred.com;
1381;INTRALOX;INTRALOX;INTRALOX LLC EUROPE;1101AH;AMSTERDAM Z-O;serviceclientele@intralox.com;
1382;ISHIDA;ISHIDA;ZI PARIS NORD II;95975;ROISSY CHARLES DE GAULLE CEDEX;piecesetservice@ishidaeurope.com;
1383;IWAKI;IWAKI;9 Rue Joly de Bammeville Parc de la Fontaine de Jouvence;91460;MARCOUSSIS;didier.hochstetter@iwaki.fr;
1384;JBT;GYRO JBT;62 Bld henri navier;95150;TAVERNY;;
1385;KERSIA;KERSIA;55 BOULEVARD JULES VERGER;35800;DINARD;frederic.matte@kersia-group.com;
1386;L'AIR FROID;L'AIR FROID;;;;;
1387;LECHLER;LECHLER;;;;;
1388;MEC;MEC;ZI Le Blanchon;1160;PONT D'AIN;mec.composants@free.fr;
1389;MECAMAINTENANCE;MECAMAINTENANCE;3 RUE PRINCIPALE;77320;SAINT REMY DE LA VANNE;deborahv@meca-systeme.com;
1390;MICROJET;MICROJET;;;;;
1391;MODULFROID;MODULFROID;1 rue Lenôtre;95196;GOUSSAINVILLE CEDEX;;
1392;MULTIPOND;MULTIPOND;MULTIPOND WÄGETECHNIK GMBH;D-84478;WALDKRAIBURG;;
1393;NATEL;NATEL;83 RUE ANNA SCHOEN;68200;MULHOUSE;info@natel.fr;
1394;ND;NON DEFINI;;;;;
1395;NOVACOM;NOVACOM;;;;gvalenza@novacom-vide.com;
1396;OCC;OCC;5 RUE DES COLOMBES;67350;UHRWILLER;christian@outilscoupants.com;
1397;OUTILS COUPANTS;OUTILS COUPANTS;;;;;
1398;RESOLUTECH;RESOLUTECH;ZA de Bellevue;35235;THORIGNE-FOUILLARD;Resolutech.conseils@orange.fr;
1399;SDPI;SDPI;ZI DE LA GARDERIE;56520;GUIDEL;serge.le-godec@sdpi-56.fr;
1400;SERAP;SERAP;;;;lroger@groupeserap.com;
1401;SEROP CONCEPT;SEROP CONCEPT;ZI des PAYS BAS;29510;BRIEC DE l'ODET;serop@serop-concept.com;
1402;SNT;SNT;2 rue Marcel Dassault;94510;LA QUEUE EN BRIE;snt.contact@snt.tm.fr;
1403;SONEPAR;SONEPAR;;;;;
1404;SOPROMA;SOPROMA;RUE DU RIED;67720;HOERDT;;
1405;SOUDAGE EQUIPEMENT;SOUDAGE EQUIPEMENT;2A RUE DE L ENERGIE;67720;HOERDT;info@soudage-equipement.com;
1406;SPRAYING SYSTEMS;SPRAYING SYSTEMS;;;;;
1407;STAEDLER;STAEDLER AUTOMATION AG;Looäcker 4;9247;HENAU;sandro.braun@staedler-automation.ch;
1408;T0001;A. Baumann;6 rue Ampère;67118;Geispolsheim;;
1409;T0002;ABILIS;RUE DES FRERES LUMIERE;67038;STRASBOURG CEDE;;
1410;T0003;ABISS;14 rue de Riss;91170;VIRY CHATILLON;;
1411;T0004;ABS POMPES;26 allee du plateau;93250;VILLEMOMBLE;;
1412;T0005;ACIM JOUANIN;1 rue Vulcain;27025;EVREUX;;
1413;T0006;ACP;;;;;
1414;T0007;Action Auto Securita;55 Rue du marais;67300;SCHILTIGHEIM;;
1415;T0008;ADC Etanchéité;17 rue de l industrie;67550;VENDEHEIM;;
1416;T0009;ADDITIF;4 rue Monnieres;39100;FOUCHERANS;;
1417;T0010;ADEC;14 RUE DE LA ZIEGELAU;67100;STRASBOURG;;
1418;T0011;AERA Machines d'emba;1 route de D'UTTWILLER;67330;BOUXWILLER;;
1419;T0012;AGS Maintenance;1 Rue des courils;67120;DUTTLENHEIM;;
1420;T0013;AIR LIQUIDE;Impas. Denis Papin ZI Sud;67400;ILLKIRCH;;
1421;T0014;AIR PRODUCTS;78 Rue Championnet;75881;PARIS CEDEX 18;;
1422;T0015;Air technic;BP 16  Rue du fort ZI Geispols;67404;ILLKIRCH cedex;;
1423;T0016;ALDES AERAULIQUE;20 Bd Irène Joliot-Curie;69694;VENISSIEUX CEDE;;
1424;T0017;ALDES STRASBOURG;13 rue du port du rhin  BP 18;67016;STRASBOURG;;
1425;T0018;ALGECO;54 quai jacoutot    bp 75;67100;STRASBOURG;;
1426;T0019;ALIMAT TREMBLAY;11 rue Henri Farman;93297;TREMBLAY EN FRA;;
1427;T0020;ALMET;3 rue Ettore Bugatti      BP34;67038;STRASBOURG CEDE;;
1428;T0021;ALPINA FRANCE;ZA la forges;68160;St CROIX AUX MI;;
1429;T0022;Alsace Confort Therm;9 Impasse de Reims   BP 104;67403;ILLKIRCH GRAFEN;;
1430;T0023;ALSACE ELECTRO DIESE;20 rue du Fort;67118;GEISPOLSHEIM GA;;
1431;T0024;AUDIT MAINTENANCE IN;1 rue de l Espagne;67230;BENFELD;;
1432;T0025;ALSACE PESAGE;ZA B.P. 13;67720;WEYERSHEIM;;
1433;T0026;ALSIA;19 Route de Bischwiller;67301;SCHILTIGHEIM;;
1434;T0027;ANDRES Bernard;298A rue du moulin;67210;MEISTRATZEIM;;
1435;T0028;Anger;9 Route du Petit - Rhin      B;67016;Strasbourg Cede;;
1436;T0029;APAVE;2 rue Thiers;68056;MULHOUSE CEDEX;;
1437;T0030;API;2 Place de Lattre de Tassigny;67300;Schiltigheim;;
1438;T0031;APLIFIL;ZI de l Arquerie;27270;BROGLIE;;
1439;T0032;APM;HOERDT;;;;
1440;T0033;APSYS;24,rt d'avignon;30150;st Genies de co;;
1441;T0034;AQUA TERRA;29 route de la Wantzenau;67800;HOENHEIM;;
1442;T0035;ARTEMIS;B.P. 405;7004;PRIVAS CEDEX;;
1443;T0036;ARTOFEX;ZI N°2  8 Rue Prony;37300;JOUE LES TOURS;;
1444;T0037;ASPI L'ASPIRATION IN;16 Av de l'énergie;67802;BISCHHEIM CEDEX;;
1445;T0038;Atelier Mecanique La;Av de la Rotonde  Zones Multim;59461;LOMME CEDEX;;
1446;T0039;ATLAS COPCO;;95130;FRANCONVILLE;;
1447;T0040;SCHMERSAL France;8 rue Raoul Follereau;38180;SEYSSINS;;
1448;T0041;Automatisme et Servi;6 rue du doub;67100;STRASBOURG;;
1449;T0042;AVERY;10-12 rue du Saule trapu  BP 2;91882;MASSY;;
1450;T0043;AXIMA;RUE DE L ENERGIE;67300;HOENHEIM;;
1451;T0044;B.D.L. Tambour Moteu;ZI de KERANNOU  BP34;29250;ST POL DE LEON;;
1452;T0045;BAERMANN;Port du Rhin;67100;STRASBOURG;;
1453;T0046;BALANCES AUTOMATIQUE;1 quai du Roethig;67200;STRASBOURG;;
1454;T0047;BALTZINGER ELECTRICITE;BP 183;67304;Schiltigheim Ce;;
1455;T0048;BARTHEL;1 rue A. Kastler;67300;SCHILTIGHEIM;;
1456;T0049;BARUCH ET FILS;5 r de Dorlisheim;67560;ROSHEIM;;
1457;T0050;BAUMULLER FRANCE SAR;39 av de l'Europe;77184;EMERAINVILLE;;
1458;T0051;BAUR & Cie;11 Boulvard CASTELNAU;67601;SELESTAT cedex;;
1459;T0052;BAUWAL;19 route de Brumath;67550;VENDENHEIM;;
1460;T0053;BAYARD;22 Avenue Viviani;69631;VENISSIEUX CEDE;;
1461;T0054;BENSOUSSAN;13 ru du château d'angleterre;67300;schiltigheim;;
1462;T0055;BERTHOLD MAX & CIE S;23 rue Saglio;67100;STRASBOURG MEIN;;
1463;T0056;BILD SCHEER;10 Rue du Chêne  ZI;67800;HOENHEIM;;
1464;T0057;Binder & Jenny;14 Rue du Marechal Lefebvre BP;67022;Strasbourg Cede;;
1465;T0058;BIOBLOCK SCIENTIFIC;Rue Sébastien Brant;67400;ILLKIRCH;;
1466;T0059;BONFIGLIOLI TRANSMIS;14 rue Eugène Pottier;95670;MARLY LA VILLE;;
1467;T0060;BONGARD;36 rue Principale;67112;BREUSCHWICKERSH;;
1468;T0061;BRAMMER;15 Rue Schertz  BP 173;67025;Strasbourg Cede;;
1469;T0062;Brickmann;11 rue schertz;67024;STRASBOURG;;
1470;T0063;BRILL;2 rue de Dunkerque;67017;STRASBOURG;;
1471;T0064;brook hansen;la belle orge;88110;RAON L'ETAPE;;
1472;T0065;Brossette BTI;13 Rue du Havre;67100;Strasbourg;;
1473;T0066;Burkle;27b Rue du Maréchal Lefevre;67100;Strasbourg;;
1474;T0067;BUSCH FRANCE;Parc technologique du bois cha;91029;EVRY CEDEX;;
1475;T0068;BUZZICHELLI SA;Zone Industrielle;67850;HERRLISHEIM;;
1476;T0069;C.T.B. CHOFFEL ELECT;23 rang de Veseaux;88202;REMIREMONT / ST;;
1477;T0070;CAB;ZA nord du val de Moder    BP2;67350;NIEDERMODERN;;
1478;T0071;CAR;;67;ROBERTSA;;
1479;T0072;Carbone Lorraine;10 Rue Roger Dumulin;80084;Amiens Cedex 02;;
1480;T0073;CARRIER;4 impasse Hoeltzel;67400;ILLKIRCH;;
1481;T0074;CETAL;42 rue des Aviateurs;67501;HAGUENAU;;
1482;T0075;CGST SAVE;24 rue du bain aux plante;67000;STRASBOURG;;
1483;T0076;CFS France S.A.S.;25, rue de la Claie B.P. 90114;49071;BEAUCOUZE;;
1484;T0077;CHARRON;138 Bld Perier;13268;MARSEILLE CEDEX;;
1485;T0078;CHOFFEL J. - CTB;23 rue du Rang de Vescaux;88202;REMIREMONT CEDE;;
1486;T0079;CIGOTEC;4 rue de l industrie;68360;SOULTZ;;
1487;T0080;ALFAGOMMA;ZI - 7 Rue de l'atome;67800;BISCHHEIM;;
1488;T0081;CLEVER CRAWFORD HA;13 Rue Vauban   BP 64656;67450;MUNDOLSHEIM;;
1489;T0082;CNPP ENTREPRISE;St Just;27950;SAINT MARCEL;;
1490;T0083;COFRAN;ZIO 3 rue Gutenberg BP309;51061;REIMS;;
1491;T0084;COLETTE;KEERBAAN 70;2160;WONNELGEN;;
1492;T0085;COLLARD PELLISSON;le Balmay;1430;D'IZENAVE;;
1493;T0086;COLMANT CUVELIER;42 rue Louis Braille;59700;MONS EN BAREUIL;;
1494;T0087;COLORA BURO;Route d'Eschau;67400;ILLKIRCH;;
1495;T0088;COMEFRI;10rue des freres lumieres;69740;GENAS;;
1496;T0089;COMO;35 rue de Condé;69002;LYON;;
1497;T0090;COMPTOIR AGRICOLE;35 rte de Strasbourg;67270;HOCHFELDEN;;
1498;T0091;COREDIS;Chemin de la lone;69310;PIERRE BENITE;;
1499;T0092;COUSTRA;5 rue de la toussaint;67000;STRASBOURG;;
1500;T0093;SEALED AIR / CRYOVAC;53 R ST DENIS BP9;28234;EPERNON;;
1501;T0094;CTRI;8  Rue de la poste  BP 89;67702;SAVERNE CEDX;;
1502;T0095;CUCCO;BP 128  ZI de FELET;63300;THIERS;;
1503;T0096;CULLIGAN;;;LAMPERTHEIM;;
1504;T0097;DAHMS ELECTRONIC;11 rue Ehrmann;67000;STRASBOURG;;
1505;T0098;DECOPEINT;13 rue du chateau d'Angleterre;67300;SCHILTIGHEIM;;
1506;T0099;DEPHY;42, ROUTE DES RUELLES;89380;APPOIGNY;;
1507;T0100;DIAGTECH;32 rue du village;67170;HOCHSTETT;;
1508;T0101;DIMACO;14 rue Ch. A. Wurtz      BP19;67202;WOLFISHEIM;;
1509;T0102;DIPAC ELECTRONIQ. IN;15 Impasse Saint-Hubert;68790;MORSCHWILLER LE;;
1510;T0103;DISTEL;ZI Nord;67170;BRUMATH;;
1511;T0104;DISTRIA SCHOETTLE;2 rue du Doubs;67022;STRASBOURG;;
1512;T0105;DOMINO YOUNG;ZA Bel air 10 rue pierre Métai;78511;RAMBOUILLET;;
1513;T0106;DREYPHUS;55 CHEMIN D AMANCE;54130;DOMMARTEMONT;;
1514;T0107;DRESSER POMPES;202 Route de Colmar;67100;STRASBOURG;;
1515;T0108;DUBOR france;ZI CD52 rue des Pyrénées;68490;OTTMARSHEIM;;
1516;T0109;E M G;30 rue des Tuileries;67460;SOUFFELWEYERSHE;;
1517;T0110;E T C P;ZI rue de l'Industrie;67723;HOERDT CEDEX;;
1518;T0111;E.S.I.;1 rue Georges Cuvier Z.A.;67610;LA WANTZENAU;;
1519;T0112;ECLAIR REPRODUCTION;11 rue St Gothard;67000;STRASBOURG;;
1520;T0113;EDWARDS.;LYON;69;lyon;;
1521;T0114;Efrapo;1 Rue de Cherbourg - B.P.10;67026;Strasbourg Cede;;
1522;T0115;ELCEDIS SYSTEME;;65000;GONNESSE;;
1523;T0116;ELECTRICITE STRASBOU;26, Bld du Prés. Wilson;67953;STRASBOURG CEDE;;
1524;T0117;ELECTRO RHIN;5 Rue ampère BP 137;67118;GEISPOLSHEIM -;;
1525;T0118;Electro Service Maye;39 route de colmar   BP14;68150;OSTHEIM;;
1526;T0119;ELECTRONA;13 Rue Jean-Jaures   BP 27;67381;LINGOLSHEIM;;
1527;T0120;ELMECAU;Rue Desaix;67453;MUNDOLSHEIM CED;;
1528;T0121;ENDRESS + HAUSER;3, rue du Rhin  BP 150;68331;Huningue Cdx;;
1529;T0122;ENGIGAZ;ZI NORD EST 5 RUE DES PTS RUIS;91370;VERRIERES LES B;;
1530;T0123;ESPERA FRANCE;Rue Augustin Fresnel;92167;ANTONY;;
1531;T0124;ETS POMPAC;1 rue du Doubs;67028;STRASBOURG CEDE;;
1532;T0125;ETS SIEHR;37 rte du Rhin;67027;STRASBOURG CEDE;;
1533;T0126;EURODECOUPE;28 Rue des Frères Eberts - B.P;67023;STRASBOURG;;
1534;T0127;EUROPART'S;BP 9   24 r de la Savonnerie;68460;LUTTERBACH;;
1535;T0128;EUROP'ETANCHEITE;4 rue de l'Etang;67115;PLOBSHEIM;;
1536;T0129;EUROTHERM AUTOMATION;6 chemin des Joncs;69572;DARDILLY CEDEX;;
1537;T0130;EVAC EAU;8 rue de la Croix;67120;;;
1538;T0131;EXCELITE;23  rue d'hauteville;75010;PARIS;;
1539;T0132;FACEN;110 avenue de Flandre;59290;WASQUEHAL;;
1540;T0133;FALIERES;3 rue de la zorn;67850;HERRLISHE;;
1541;T0134;FEIN FRANCE;14 rue Ballerich;67;SAVERNE;;
1542;T0135;Fenwick - Linde;BP 10151 GEISPOLSHEIM;67404;ILLKIRCH CEDEX;;
1543;T0136;ferailleur haag;;67;strbg;;
1544;T0137;FERBAT S.A.;11 rue Livio;67025;STRASBOURG CEDE;;
1545;T0138;FESTO;ZA desMaisons Rouges 8,rue clo;94367;BRY-SUR-MARNE;;
1546;T0139;FEUCHTER & CIE;rue Obermodern;67;BOUXWILLER;;
1547;T0140;FG INOX;ZAC du Baconnet;69700;MONTAGNY;;
1548;T0141;MABEO/FIDEST;2 rue du fort;67023;GEISPOLSHEIM;;
1549;T0142;FLYGT- ITT  POMPE;Z.I  Rue de l'industrie;67640;FEGERSHEIM;;
1550;T0143;FMC FOODTECH;106 Bld Heloise   BP 55;95101;Argenteuil;;
1551;T0144;FORMINOX TECHNOLOGIE;8 rue Aimé Delrue;44120;VERTOU;;
1552;T0145;FRANCE AIR;5 allées des Foulons;67380;LINGOLSHEIM;;
1553;T0146;FRANCE TELECOM;1 rue Rene Laennec;67305;SCHILTIGHEIM;;
1554;T0147;FRITEC;13 rue des freres lumiere;67201;ECKBOLSHEIM;;
1555;T0148;FUCHS;81 rue de l'industrie;92500;RUEIL MALMAISON;;
1556;T0149;FUHRER & STOLL;13 rue La Fayette;67100;STRASBOURG;;
1557;T0150;GANZITI;1 Rue des Ardennes;67460;SOUFFELWEYERSHE;;
1558;T0151;GANZITTI;1 Rue des ARDENNES;67460;Souffelweyershe;;
1559;T0152;GARAGE SIMON;5 A avenue de l'energie;67300;BISCHEIM;;
1560;T0153;GAZ DE STRASBOURG;11 Place des Halles;67082;STRASBOURG CEDE;;
1561;T0154;GEMU;1 rue jean Bugatti  BP43 DUPPI;67127;MOLSHEIM CEDEX;;
1562;T0155;GERHARD Jean-Marc;11 rue Aristide Briand;67400;ILLKIRCH;;
1563;T0156;GOUET SA;Rue Lavernot;76260;EU;;
1564;T0157;GRACO ENERFLUID SA;BP 102;92252;LA GARENNE COLO;;
1565;T0158;Grandidier;1, route de Moriville;88330;Rehaincourt;;
1566;T0159;GRAPHITE ET METAUX;ZI BP 504;51005;CHALONS SUR MAR;;
1567;T0160;KDI/Grimmeissen;7 Rue de Cherbourg   B.P. 43;67026;Strasbourg Cede;;
1568;T0161;GRUPP;22, rue des TUILERIES;67460;SOUFFELWEYERSHE;;
1569;T0162;GUILLOU LOUE TOUT;7 Routre de la Wantzenau;67800;HOENHEIM;;
1570;T0163;GUNTHER FERMETURES;3 rue de Picardie;67116;REICHSTETT;;
1571;T0164;H23 Systems;5 rue du Moulin;67390;MACKENHEIM;;
1572;T0165;Habasit france;41 rue Alfred Kastler - zac de;68059;MULHOUSE;;
1573;T0166;HELY JOLY;BP N°87  PARC D'ACTIVITE;69280;SAINTE CONSORCE;;
1574;T0167;HEMA SIDEL;5, rue Hervé Marchand;29556;Quinper Cedex 9;;
1575;T0168;HILD RAYMOND;3 Bld Pasteur;67500;haguenau;;
1576;T0169;Houtmann Industries;6 Rue Jean Monnet P.B.50 Eckbo;67038;Strasbourg cede;;
1577;T0170;I.S.D.;13 rue de l'énergie;67720;HOERDT;;
1578;T0171;IFM ELECTRONIC;B.P. 226;73374;LE BOURGET-DU-L;;
1579;T0172;IGUS;26 Av des pepinieres  medicis;94832;FRESNES CEDEX;;
1580;T0173;ILAPACK;RUE LECH WALESA;77437;MARNE LA VALLE;;
1581;T0174;IMAJE S.A.;9 Rue Gaspard Monge    BP 110;26501;BOUR LES VALENC;;
1582;T0175;INA ROULEMENTS;93 route de Bitche;67506;HAGUENAU CEDEX;;
1583;T0176;INDUSTRADE;17 rue Alfred astler    BP N°;67305;SCHILTIGHEIM CE;;
1584;T0177;INTERROLL;Postfach 2251/2252;D-429;WERMELSKIRCHEN;;
1585;T0178;ISOFROID;15 route de Durningen;67370;AVENHEIM;;
1586;T0179;ISOMAT;14 rue des primeveres;67310;WASSELONNE;;
1587;T0180;ITB;6 rue Etore Bugatti;67150;ERSTEIN;;
1588;T0181;ITHO DENKI EUROPE;BP 199;73304;CLUSES;;
1589;T0182;BAUMER IVO;BP103;67403;ILLKIRCH CEDEX;;
1590;T0183;J M G SYSTEME DE REV;11 rue Aristide Briand;67400;ILLKIRCH;;
1591;T0184;JANZ;11 rue de l'Industrie;67402;ILLKIRCH CEDEX;;
1592;T0185;Jeckel;22 Rue de l'Ardèche;67100;Strasbourg;;
1593;T0186;JLP Automatisme;;;St. Etienne;;
1594;T0187;JUMO REGULATION;;;METZ;;
1595;T0188;JUNGER ET FILS;17, RUE DES PAÏENS;67720;HOERDT;;
1596;T0189;KAMWAL;3 Rue du chaine;67800;BISCHEIM;;
1597;T0190;KARELIS;193 Chassoliere;38340;voreppe;;
1598;T0191;KEHR;6 rue du col vert  ZA VOGELAU;67300;SCHILTIGHEIM;;
1599;T0192;KETTERER SULZER;10 rue de l'Atome;67800;BISCHHEIM;;
1600;T0193;KLEENCARE;20 Rue Lavoisier;95300;PONTOISE;;
1601;T0194;KLEIN Frères;4/6 rue de Bernardsviller;67211;OBERNAI CEDEX;;
1602;T0195;KRAUS & NAIMER;33 r bobillet;75013;PARIS;;
1603;T0196;KRIEGER RIMMELIN;8  rue des Sarcelles;67300;SCHILTIGHEIM;;
1604;T0197;Kronen GmbH et Co.;Geweberstrasse 3;77731;Willstätt;;
1605;T0198;L P C R (Les Produit;12 rue des Sarcelles;67015;STRASBOURG CEDE;;
1606;T0199;REXEL LA VOLTAMPERE;BP 27;67311;SCHILTIGHEIM;;
1607;T0200;LATINPACK;Parc technologique 24 rue du B;91029;EVRY;;
1608;T0201;LEBAS SYSTEME;2 RUE DENNIS PAPIN;67;SCHILTIGHEIM;;
1609;T0202;LEHMANN;28 rue de Cherbourg;67100;STRASBOURG;;
1610;T0203;LEHMANN S.A.;18 rue J-M Jacquard;67403;ILLKIRCH CEDEX;;
1611;T0204;LENZE;Rue Albert Einstein;93603;AULNAY SOUS BOI;;
1612;T0205;LEPAIN;2 rue Mozart;67460;SOUFFELWEYERSHE;;
1613;T0206;LEYBOLD;7 avenue du Québec;91942;LES ULIS;;
1614;T0207;LINDAB;12 rue de l'Ardèche;67100;STRASBOURG;;
1615;T0208;LMIA;18 rue de l'industrie;67720;HOERDT;;
1616;T0209;LMV;5 rue du Tanin      BP 102;67833;TANNERIES LINGO;;
1617;T0210;LOCAREST;16 rue du Mal Lefebvre;67024;STRASBOURG CEDE;;
1618;T0211;LOEBER Georges;16 rue Lamartine;67300;SCHILTIGHEIM;;
1619;T0212;Loll/Houtmann;2 rue Michaël Faraday;67540;OSTWALD;;
1620;T0213;LOXAM;18 rue de la Rochelle;67100;Strasbourg;;
1621;T0214;Ludwig Patrick;8 Rue des roses;67240;KURTZENHOUSE;;
1622;T0215;LUTETIA;7 Rue du col DRIANT;95400;ARNOUVILLE LES;;
1623;T0216;MANUMESURE;23 rue Friedolsheiml;67200;STRASBOURG;;
1624;T0217;MANUTAN;Z.I. B.P. 105  -   16 rue Ampè;95506;Gonesse Cedex;;
1625;T0218;MARTENS;26, rue de l'Industrie B.P. 82;67173;BRUMATH;;
1626;T0219;MARTONAIR;ZI de NOISIEL 1;77422;MARNE LA VALLEE;;
1627;T0220;MASTRA EST ROULETTE;PARC D'ACTIVITE 1, RUE JEAN PE;67201;STRASBOURG;;
1628;T0221;MECASEM;11 quai Heydt;67540;OSTWALD;;
1629;T0222;MEDIACO;12 Rue de l'industrie    ZI;67720;HOERDT;;
1630;T0223;MELLY INCENDIE;3 rue de la Tuilerie;67115;PLOBSHEIM;;
1631;T0224;MERGER;11 rue des Frères Eberts;67100;STRASBOURG;;
1632;T0225;METAUSEL;23 Rue de la Robertsau BP 13;67801;Bischeim Cedex;;
1633;T0226;METTLER INSTRUMENTS;2 rue P. et M. Curie;54320;MAXEVILLE;;
1634;T0227;METTLER TOLEDO SA;18-20 Av de la pepinière;78222;VIROFLAY CEDX;;
1635;T0228;MEYER PERFO;14 rue de l'Industrie;67170;BRUMATH;;
1636;T0229;Michel Sacareau Equi;13 rue du Parc;31600;SEYSSES;;
1637;T0230;MILLENNIUM COUVERTUR;26 rue d'eckelbolsheim;67205;OBERHAUSEBERGEN;;
1638;T0231;MJP BENSOUSSAN;13 rue du chateau d'angleterre;67300;SCHILTIGHEIM;;
1639;T0232;MOCK ASP;ZI Bischheim Hoenheim 18-20 r;67800;BISCHHEIM;;
1640;T0233;MOEBS;271 rte de Schirmeck;67036;STRASBOURG CEDE;;
1641;T0234;MONARCH WEISSHAUPT;21 rue A. Kiener;68005;COLMAR CEDEX;;
1642;T0235;MONDIA;10 rue du bassin du commerce;67017;STRASBOURG CEDE;;
1643;T0236;MOUVEX;5 rue du Sahel;75012;PARIS;;
1644;T0237;TTP;10, rue de l'Uranium;67800;reichtett;;
1645;T0238;MULTITEC;5 rue des sarcelles;67300;SCHILTIGHEIM;;
1646;T0239;MULTIVAC;2 Passage Fernand Leger St Thi;77462;LAGNY sur MARNE;;
1647;T0240;NILFISK;18-20 av des Iris;91944;COURTABOEUF CED;;
1648;T0241;NOMAFA;;67603;SELESTAT CEDEX;;
1649;T0242;OBRECHT JL;100 Av de Colmar;67100;STRASBOURG;;
1650;T0243;OFB;98 RUE BOECKLIN;67000;STRASBOURG;;
1651;T0244;ORAPI;Parc Industriel de la Plaine d;*****;SAINT-VULBAS;;
1652;T0245;ORDITEC;Route de Fleville;54183;HEILLECOURT CED;;
1653;T0246;ORIENTAL  Motor;32,avenue de l'ILES St-Martin;92737;NANTERRE;;
1654;T0247;OTE;4 rue de la Lisière;67800;ILLKIRCH;;
1655;T0248;OTIS Nord Est;200 route de colmar;67023;STRASBOURG CEDE;;
1656;T0249;OUTILLAGE ASSISTANCE;ZI N°2 Rue de l'embranchement;67116;REICHSTETT;;
1657;T0250;P.H.A.;BP 409;84308;LES TAILLADES C;;
1658;T0251;PANOFRANCE;ZI Sud  - 2,rue de saint Nazai;67100;STRASBOURG;;
1659;T0252;PANOSUR;route de paris;3105;MONTLUCON;;
1660;T0253;PCM POMPES;Route de Montjean      BP1;49123;CHAMPTOCE SUR L;;
1661;T0254;PILZ FRANCE;11 rue Jacob Mayer;67037;STRASBOURG;;
1662;T0255;PNEUMAX;ZI NORD PARADIES - 7 rue de Wa;67 60;SELESTAT;;
1663;T0256;POLYMIX;6 rue de l'Industrie;68126;BENWIHR-GARE;;
1664;T0257;POMPES SIHI;20 rue de Betheny;51100;REIMS;;
1665;T0258;PORTAKABIN;ZAC BENFELD rue de Hollande;67230;BENFELD;;
1666;T0259;PRIMAGAZ;rue de la Poudrerie;37705;Saint Pierre de;;
1667;T0260;PROTIBAT;&5 rue VAUBAN BP 28;67451;MUNDOLSHEIM;;
1668;T0261;PROXYMA;24 Rue Theophile Vacher;95160;MONTMORENCY;;
1669;T0262;PUM;19 Rue de St Nazaire BP2;67026;Strasbourg;;
1670;T0263;RADEMAKER;75 rue du général de Gaulle;95210;St GRACIEN;;
1671;T0264;RADIOSPARES COMPOSAN;Rue Norman King;60031;BEAUVAIS CEDEX;;
1672;T0265;RAPIDPLAQUES;34 rue des veaux;67720;WEYERSHEIM;;
1673;T0266;RAYCHEM;2 Bld du Moulin à Vent;95800;CERGY ST CHISTO;;
1674;T0267;REGIONALE DE CHAUFFE;249 Rue louis remy;39570;MESSIA SUR SORN;;
1675;T0268;REGMATHERM UM;10 rue des frères Eberts;67100;STRASBOURG;;
1676;T0269;RENOV CHEMINEES LOBS;ZA 3 Rue GAY LUSSAC;67201;ECKBOLSHEIM;;
1677;T0270;RENTOKIL;3 rue de rome     BP 28;93114;Rosny-sous-bois;;
1678;T0271;RESSORT INDUSTRIEL;9 Rue de la Batterie Parc Acti;67118;GEISPOLSHEIM GA;;
1679;T0272;RICK;9, rue des Alliés;67120;Molsheim;;
1680;T0273;RIETSCHLE;8, RUE DES CHAMPS;68220;HESINGUE;;
1681;T0274;Ringenwald;27 Rue de Cherbourg  BP 34;67026;Strasbourg;;
1682;T0275;RMS;27 Rue de Cherbourg  BP 34;67100;STRASBOURG;;
1683;T0276;ROLLHAUS EURL;13 rue de l abatoir;67300;SCHILTIGHEIM;;
1684;T0277;RUIU;1 ROUTE D ESCHAU      BP 155;64404;ILLKIRCH CEDEX;;
1685;T0278;RUMP;2 Rue Saint Malo;67100;Strasbourg;;
1686;T0279;S A E D;rue du Cor de Chassa;67400;ILLKIRCH GRAFFE;;
1687;T0280;S.D.E.M.;15 RUE DE BREST;67100;STRASBOURG;;
1688;T0281;SAETTLER;;67;BRUMATH;;
1689;T0282;SAFELINE SA;ZAC de Villepède - Bat A1;91280;SAINT PIERRE DU;;
1690;T0283;SALINS DU MIDI;6 rue Gabriel Péri;54110;VARANGEVILLE;;
1691;T0284;SAMIE;Z I Plaine des bouchers 105;67100;Strasbourg Cede;;
1692;T0285;SAMSON REGULATION;1 Rue jacques Corona;69120;VAUX EN VELUN;;
1693;T0286;SANEST;14 rue de Rouen;67000;STRASBOURG;;
1694;T0287;SAPIM INOX;6 rue mentelin;67560;ROSHEIM;;
1695;T0288;SARMABO;ZA des marechaux 18 rue Desaix;67450;MUNDOLSHEIM;;
1696;T0289;Sateco;ZA - Rue des Près BP 14;67370;Truchtersheim;;
1697;T0290;SCHLUMBERGER/ACTARIS;11 Bd Pasteur;67;HAGUENAU;;
1698;T0291;Schoettlé;11 RUE SCHERTZ;67022;Strasbourg;;
1699;T0292;SCOP ES VERT;rue du tramway;67114;ESCHAU;;
1700;T0293;SECURITAS;6 rue Ettore Bugatti;67038;STRASBOURG CEDE;;
1701;T0294;RONDO;PAE les pins;67319;WASSELONNE;;
1702;T0295;SELFCO;11 rue de TANIN      BP 26;67831;TANNERIES CEDEX;;
1703;T0296;SEMIKRON;130 rue de Lormeil;78501;SARTROUVILLE;;
1704;T0297;SERMES;14 Rue des frères Eberts  BP17;67025;Strasbourg Cede;;
1705;T0298;SERVITECH;76 R des plaine des Bouchers;67100;STRASBOURG MEIN;;
1706;T0299;SEW USOCOM;48-54 Route de Soufflenheim  B;67506;Haguenau Cedex;;
1707;T0300;SICK;;;PARIS;;
1708;T0301;SID (Sylvia SIMON);15 rue du Maire Maetz;67870;GRIESHEIM/MOLSH;;
1709;T0302;SIEMENS CERBERUS;30 rue Industrie;67400;ILLKIRCH GRAFFE;;
1710;T0303;SIEMENS Maintenance;39-47 Boulevard Ornano;93527;Saint Denis Ced;;
1711;T0304;SITAL;22 rue de cherbourg;67026;STRASBOURG;;
1712;T0305;SNTIA;69 chemin des pres bouvaux  ZA;74600;SEYNOD;;
1713;T0306;SOCAFLUID;473 rue Edouard HERRIOT;69655;VILLEFRANCHE/SA;;
1714;T0307;Societe Alsacienne d;1 rue Alexandre Volta;67450;MUNDOLSHEIM;;
1715;T0308;Societe nouvelle WOL;ZA 18 rue Gutenberg;67610;LA WANTZENAU;;
1716;T0309;SONEFI;137 rue de Javel;75015;PARIS;;
1717;T0310;SOPREMA;14 rue de St Nazaire;67100;STRASBOURG;;
1718;T0311;SPECK POMPES INDUSTR;ZI du Mesnil roux   971 Bld de;76360;BARENTIN;;
1719;T0312;SPIE TRINDEL;B.P. 72;67382;LINGOLSHEIM;;
1720;T0313;SPIROFLUX;Z.I. Puits Gérard - B.P.102;13542;GARDANNE;;
1721;T0314;STE EUROPEENNE DE TR;154 Allée des Erables;95950;ROISSY-CHARLES;;
1722;T0315;Steelco SNR;2 Rue Alfred Kastler - B.P.121;67303;SCHILTIGHEIM;;
1723;T0316;STEMMER;27 rue Stosskopf;67100;STRASBOURG;;
1724;T0317;STEPHAN;ZAC du Mandinet rue des campan;77185;lognes;;
1725;T0318;SZ ELECTRICITE;41 R du Gnl GOURAUD;67802;HOENHEIM;;
1726;T0319;T.T.P.;2 rue de l artisanat;67116;REICHSTETT;;
1727;T0320;TECI serrurerie;6 rue du chêne;67800;HOENHEIM;;
1728;T0321;TEK;24a rue Joseph-marie Jacquard;67400;ILLKIRCH GRAFFE;;
1729;T0322;TELEMECANIQUE;14 allée des Foulons;67380;LINGOLSHEIM;;
1730;T0323;THERMO EST;ZI Malambas / HAUCONCOURT;57213;MAIZIERES-LES-M;;
1731;T0324;TICE;ZI 8 Rue de l'energie  BP 172;67726;HOERDT CEDEX;;
1732;T0325;TIROMAT C.F.S.;25 rue de claie  ZI angers bea;49070;BEAUCOUZE;;
1733;T0326;TIXIT;Rue de l'Industrie;67550;VENDENHEIM;;
1734;T0327;TKDESS;23 rue du cannal;67800;BISCHHEIM;;
1735;T0328;TRANSITUBE;CE 1804;91018;EVRY CEDEX;;
1736;T0329;TRANSROUTE;12 RUE DE MOLSHEIM     BP 81;67123;WOLXHEIM;;
1737;T0330;TREIF FRANCE;22 rue des Tuileries;67460;SOUFFELWEYERSHE;;
1738;T0331;TRENDEL;Rue ferme Klein  ZA Clausenhof;67502;HAGUENAU CEDEX;;
1739;T0332;TRIBOLLET;ZAC Actinove;1120;THIL;;
1740;T0333;USOCOME;50-54 rte de Soufflenheim;67501;HAGUENAU;;
1741;T0334;VEGA TECHNIQUES;15, rue du Ried;67150;NORDHOUSE;;
1742;T0335;VIDEOJET;Parc Gutenberg- 7 voie la card;91127;PALAISEAU CEDEX;;
1743;T0336;VMI;ZI Nord           MONTAIGU;85607;MONTAIGU;;
1744;T0337;VR2M;ZA du pressoir Vert  170 rue M;45400;SEMOY;;
1745;T0338;WANSON;ZI Heillecourt Est;54180;HEILLECOURT;;
1746;T0339;WEISHAUPT;21 Rue André-kiener        BP;68012;COLMAR Cedex;;
1747;T0340;WEISS  CORDERIE;11 RUE DU CANAL;67400;ILLKIRCH-GRAFFE;;
1748;T0341;WIKA;9 chaussée J. César;95523;CERGY PONTOISE;;
1749;T0342;WILLY LEISSNER;14 rue des Frères Eberts;67025;STRASBOURG CEDE;;
1750;T0343;WOOCK Jean-Pierre;11 rue de l'Electricité;67800;HEONHEIM;;
1751;T0344;WURTH;Rue georges Besse     BP13;67158;ERSTEIN;;
1752;T0345;SYDEL;BP 2834         rue du Gaillec;56312;LORIENT;;
1753;T0346;COURSE ECLAIR;6rue de la tour;67200;STRASBOURG;;
1754;T0347;GERMAIN O.;rue des coquelicots;67370;TRUCHTERSHEIM;;
1755;T0348;DICEEP;19 rt nationale;54280;LANEUVELOTTE;;
1756;T0349;san cassiano;;;;;
1757;T0350;CLAUS ATELIER;3 Rt d'Eschau;67401;ILLKIRCH;;
1758;T0351;FLUIDAP;Rue du cht angleterre;67300;SCHILTIGHEIM;;
1759;T0352;SCHAEFFER;2 rue de l'industrie;67521;MARLENHEIM;;
1760;T0353;T M E;;;;;
1761;T0354;NETCO;4 rue des metiers;67720;HOERDT;;
1762;T0355;HAURY;144 rt des romains;67200;STRASBOURG;;
1763;T0356;EVS;16 rue de l artisanat;67210;OBERNAI;;
1764;T0357;ZIEGLER;51 rt de Strasbourg;67490;DETTWILLER;;
1765;T0358;ALSATEL;;67960;ENTZHEIM;;
1766;T0359;CICAL;;67116;REICHSTETT;;
1767;T0360;BALIN;ZI Route d autrey;88700;RAMBERVILLERS;;
1768;T0361;T S A;8 rue jule PY;88210;MOUSSEY;;
1769;T0362;ELIONA;;;;;
1770;T0363;CFC;;67;BATZENDORF;;
1771;T0364;SARTORIUS;4 rue Emile Baudot;91127;PALAISEAU CEDEX;;
1772;T0365;LINX;;91055;EVRY;;
1773;T0366;GENERALE D'EMBALAGE;ZAC du Trianon 2 av de la pepi;78450;VILLEPREUX;;
1774;T0367;ALIAGE CREATION;3 rue des vignes;67330;BOSSELHAUSEN;;
1775;T0368;KROHNE;;26103;ROMANS;;
1776;T0369;TEPI/AIRINDEX;11 rue edouard Branly;37174;CHAMBRAY LES TO;;
1777;T0370;SEPIB;6 rue de l industrie;67640;FEGERSHEIM;;
1778;T0371;CIAT;4 rue ettore bugatti;67038;ECKBOLSHEIM;;
1779;T0372;JAL;le bourg;71800;GIBLES;;
1780;T0373;V.INGENIERIE;ZA du Ventoue;22400;LAMBALLE;;
1781;T0374;I.R.H.;;;;;
1782;T0375;DIROY;;;;;
1783;T0376;HANNECARD;;;;;
1784;T0377;BOBET;RN 23;72470;CHAMPAGNE;;
1785;T0378;PONOT;ZI de Lavée;43200;YSSINGEAUX;;
1786;T0379;EST ASCENSEURS;155rt Oberhausbergen;67200;STRASBOOURG;;
1787;T0380;M.A.E.;ZI conneuil 20rue leonard de v;37270;MONTLOUIS;;
1788;T0381;CHAUDRONNERIE DU RIE;8 rue des vergers;67390;SAASENHEIM;;
1789;T0382;Graveleau;;;;;
1790;T0383;BLANCHISSERIE DE L I;32 Rue de la Grossau;67100;STRASBOURG;;
1791;T0384;BARDAHL;25 av des FLANDRE;59290;WASQUEHAL;;
1792;T0385;F C I;ZI Nord;25220;THISE;;
1793;T0386;ERMATEC;rouute de Charnoz;-1800;MEXIMIIEUX;;
1794;T0387;ATIEP;5 Rue de l'europe BP 65;67232;BENFELD;;
1795;T0388;AXIMA ACTIS SPK;rue de l'atome;67801;BISCHHEIM;;
1796;T0389;CEPI;via ansaldo 15 ZI villa Selva;47100;FORLI (Italie);;
1797;T0390;EIE;ZA de la Sandlach  bp 90159;67503;HAGUENAU czdex;;
1798;T0391;MTSE;4 rue Gustave Goldenberg;67700;SAVERNE;;
1799;T0392;WALTER SAS;56 rue de l industrie ZI sud;67162;WISSEMBOURG;;
1800;T0393;STOW;16A av du docteur HOULLION;67600;SELESTAT;;
1801;T0394;MAXON;12, Chaussée Jules Cesar;95526;CERGY PONTOISE;www.maxoncorp.com;
1802;T0395;SEDEP;PARC D'ACTIVITES DU GAAILLEC;56276;PLOEMEUR;production@sedep.fr;
1803;T0396;ENGRENAGE HPC;58, chemin de la Bruyère;69570;DARDILLY;www.hpeurope.com;
1804;T0397;MAVIFLEX;8-14 RUE VAUCANSON;69150;DECINES;;
1805;T0398;SPENLE;ZONE INDUSTRIELLE N° 1;67490;DETTWILLER;deborah@spenle.fr;
1806;T0399;IDPACK MGTECK;ZA DU BOURGNEUF;35450;VAL d'IZE;;
1807;T0400;SERVEN;10, RUE LIVIO;67100;STRASBOURG;;
1808;T0401;STEIN Energie;34, rue d'Aspach B.P. 70129;68701;CERNAY Cedex;;
1809;T0402;SCM;ZA Le Chêne du Moulin;35600;REDON;;
1810;T0403;ITOH DENKI;490, Avenue des JOURDIES;74807;ST PIERRE FAUCN;;
1811;T0404;MECAPACK;ZI de Montifaut;87500;POUZAUGES;;
1812;T0405;JR TECH;122 Avenue de la Resistance;93340;LE RAINCY;;
1813;T0406;HYGIEN'3D;13 RUE DU CHATEAU D ANGLETERRE;67300;SCHILTIGHEIM;contact@hygien3d.fr;
1814;T0407;BANDALL;;;;info@bandall.com;
1815;T0408;MECATHERM;;;;info@mecatherm.fr;
1816;T1000;MAXON HONEYWELL;;;;;
1817;T3P;T3P;7, Rue des martyrs;29270;CARHAIX;info@t3p.fr;
1818;T409;PROXES;;31789;HAMELN;INFO@STEPHAN-MACHINERY.COM;
1819;T410;HEROLD BATIFER;5 RUE FOCH;67014;NIEDERHAUSBERGEN;;
1820;T411;ANEOLIA;240, RUE DE LA MOTTE;77550;MOISSY CRAMAYEL;;
1821;T412;HYDROMECA;;;;samuel.golik@hb-industries.eu;
1822;T413;CLAREL;15 RUE DE L4INDUSTRIE;67720;HOERDT;;
1823;T500;LE RESSORT INDUSTRIEL;9 RUE DE LA BATTERIE;67118;GEISPOLSHEIM GARE;;
1824;TAXIMA;AXIMA;;;;;
1825;TKEHR;KEHR;;;;;
1826;TROMP;TROMP;;;;service@tromp.nl;
1827;ULMA PACKAGING;ULMA PACKAGING;LE MAS DES ENTREPRISES;69330;MEYZIEU;;
1828;UNIVERS EMBALLAGE;L'UNIVERS DE L'EMBALLAGE;L'UNIVERS DE L'EMBALLAGE/DISPAC CONCEPTION;49484;VERRIERES EN ANJOU;adv1.cm@univers-emballage.com;
1829;UP2C;UP2C;;;;;
1830;VALTARO MOTORI;VALTARO MOTORI;;;;;
1831;VENAIR;VENAIR;PARC DU GRAND LYON;1700;NEYRON;contact@venair.com;
1832;VERIPACK;VERIPACK;;;;;
